{
"type": "FeatureCollection",
"name": "О Д Ж2 Ж3 Лосево",
"crs": { "type": "name", "properties": { "name": "urn:ogc:def:crs:OGC:1.3:CRS84" } },
"features": [
{ "type": "Feature", "properties": { }, "geometry": { "type": "MultiPolygon", "coordinates": [ [ [ [ 29.820559343123747, 60.713761670892161 ], [ 29.819913641041619, 60.714053733018581 ], [ 29.82044312329322, 60.714318409429104 ], [ 29.820579250562375, 60.714334684938116 ], [ 29.820757028678177, 60.714266294374902 ], [ 29.820818255865966, 60.713866126590311 ], [ 29.820559343123747, 60.713761670892161 ] ] ] ] } },
{ "type": "Feature", "properties": { }, "geometry": { "type": "MultiPolygon", "coordinates": [ [ [ [ 29.684251770618356, 60.701704316068813 ], [ 29.684200276344043, 60.70168930313114 ], [ 29.684558669006396, 60.701727899601735 ], [ 29.684559934172743, 60.701727947453371 ], [ 29.684347670120516, 60.701467564298532 ], [ 29.684405790009293, 60.701377804587565 ], [ 29.680626243208753, 60.701481088352772 ], [ 29.681099901609791, 60.702735869939694 ], [ 29.681118302548704, 60.702729838382162 ], [ 29.681553327691304, 60.702529870774782 ], [ 29.682104167454842, 60.702257745780074 ], [ 29.682356166688109, 60.70214294415436 ], [ 29.682878344860953, 60.70190505268809 ], [ 29.683004879124283, 60.701859902372128 ], [ 29.683371797864051, 60.701765632511943 ], [ 29.684141913183137, 60.701711971370536 ], [ 29.684251770618356, 60.701704316068813 ] ] ] ] } },
{ "type": "Feature", "properties": { }, "geometry": { "type": "MultiPolygon", "coordinates": [ [ [ [ 29.828052229707417, 60.711574927772752 ], [ 29.827524391809913, 60.711538244329105 ], [ 29.827308852326119, 60.711549618701582 ], [ 29.82727462299291, 60.711555357360261 ], [ 29.827391335453843, 60.711743502716452 ], [ 29.82827458564126, 60.712018540072108 ], [ 29.828590459131281, 60.711826929379065 ], [ 29.828795669852678, 60.711702447036863 ], [ 29.828846779250942, 60.711677812985108 ], [ 29.828596458845759, 60.711634850139021 ], [ 29.828052229707417, 60.711574927772752 ] ] ] ] } },
{ "type": "Feature", "properties": { }, "geometry": { "type": "MultiPolygon", "coordinates": [ [ [ [ 29.822761091606246, 60.713817644515956 ], [ 29.820982058339716, 60.713755931866011 ], [ 29.820887863024442, 60.714371580757096 ], [ 29.821770362476524, 60.715017865814467 ], [ 29.821875079564908, 60.714990962324542 ], [ 29.823067028962612, 60.714652507076764 ], [ 29.823755756239485, 60.71444107612821 ], [ 29.822761091606246, 60.713817644515956 ] ] ] ] } },
{ "type": "Feature", "properties": { }, "geometry": { "type": "MultiPolygon", "coordinates": [ [ [ [ 29.804908430335825, 60.718341415370858 ], [ 29.8046076711578, 60.718043936737764 ], [ 29.80404489556258, 60.718160754649183 ], [ 29.804409386712145, 60.718482335298745 ], [ 29.804700671167151, 60.718409220278609 ], [ 29.804908430335825, 60.718341415370858 ] ] ] ] } },
{ "type": "Feature", "properties": { }, "geometry": { "type": "MultiPolygon", "coordinates": [ [ [ [ 29.806744146177699, 60.717914633295571 ], [ 29.807129290949803, 60.717888016364995 ], [ 29.807434497647851, 60.717899602873416 ], [ 29.807836976688524, 60.717923986635356 ], [ 29.808236904124023, 60.717948107622696 ], [ 29.808239269708281, 60.7179482490331 ], [ 29.808330487788716, 60.717871962363503 ], [ 29.808333957064733, 60.717842294333501 ], [ 29.807945496686251, 60.717357820044597 ], [ 29.80778628487284, 60.717098525085014 ], [ 29.807664468161164, 60.716959343511661 ], [ 29.807547207208824, 60.71684415187412 ], [ 29.807169493656371, 60.716818166319818 ], [ 29.806426025041386, 60.716861052847442 ], [ 29.806653459165211, 60.71743588370289 ], [ 29.805985618479358, 60.717537379218307 ], [ 29.806076893975273, 60.717610619187923 ], [ 29.806246619608427, 60.717744444378347 ], [ 29.806422741011808, 60.717949651078506 ], [ 29.806563603739498, 60.71792710880073 ], [ 29.806744146177699, 60.717914633295571 ] ] ] ] } },
{ "type": "Feature", "properties": { }, "geometry": { "type": "MultiPolygon", "coordinates": [ [ [ [ 29.813693274521921, 60.718121619650042 ], [ 29.813307091265745, 60.717722190639535 ], [ 29.812634557858146, 60.717888902894856 ], [ 29.812409427124894, 60.717944710090727 ], [ 29.811690686855005, 60.718088351705951 ], [ 29.81065377456645, 60.718256038294882 ], [ 29.81044805118372, 60.718580888135286 ], [ 29.809895987045568, 60.718632618796228 ], [ 29.810624060369754, 60.719517568961173 ], [ 29.810831077312148, 60.719716986330056 ], [ 29.810974340892773, 60.719835771502872 ], [ 29.811316660157733, 60.719604937447642 ], [ 29.812716390750282, 60.718741042975587 ], [ 29.813288206603332, 60.718378469254304 ], [ 29.813693274521921, 60.718121619650042 ] ] ] ] } },
{ "type": "Feature", "properties": { }, "geometry": { "type": "MultiPolygon", "coordinates": [ [ [ [ 29.959321020202967, 60.712168434447371 ], [ 29.958986417400347, 60.712060894903082 ], [ 29.958753495785921, 60.712097033536367 ], [ 29.958128371852659, 60.71224401498749 ], [ 29.957706147468116, 60.712403548573 ], [ 29.957735049033822, 60.713313785840135 ], [ 29.958859850592869, 60.713303325720268 ], [ 29.958938259043101, 60.713260997826801 ], [ 29.959090733763698, 60.713250621462308 ], [ 29.959268927746066, 60.713238495374476 ], [ 29.959321020202967, 60.712168434447371 ] ] ] ] } },
{ "type": "Feature", "properties": { }, "geometry": { "type": "MultiPolygon", "coordinates": [ [ [ [ 30.003770008448349, 60.680296733980256 ], [ 30.004079616734764, 60.680269287759906 ], [ 30.004150536260063, 60.680270559604658 ], [ 30.004162082902042, 60.680265263470503 ], [ 30.004173036287824, 60.680270963079352 ], [ 30.004184827675545, 60.680271174606979 ], [ 30.004402092340083, 60.680286643062587 ], [ 30.004562930161761, 60.680286745545772 ], [ 30.004601890598842, 60.680265529511054 ], [ 30.004432999313483, 60.680217340636844 ], [ 30.00374466217162, 60.680037312615774 ], [ 30.003371856419761, 60.679923966695426 ], [ 30.003344183911459, 60.679920222245094 ], [ 30.003333496481311, 60.679913912686018 ], [ 30.002323018930106, 60.68026244459778 ], [ 30.002256042781742, 60.680271077436529 ], [ 30.002747239988718, 60.680595181424593 ], [ 30.00302047742964, 60.680511965803902 ], [ 30.003349236759302, 60.680411839462998 ], [ 30.003770008448349, 60.680296733980256 ] ] ] ] } },
{ "type": "Feature", "properties": { }, "geometry": { "type": "MultiPolygon", "coordinates": [ [ [ [ 29.994415052904902, 60.683355333482062 ], [ 29.994436774149172, 60.683339767008611 ], [ 29.99447005852063, 60.683348740996848 ], [ 29.99523594914589, 60.683256944434945 ], [ 29.995239123195269, 60.683258367756395 ], [ 29.999015685587604, 60.682777674500073 ], [ 29.999174533240897, 60.682746849668924 ], [ 29.999190123869457, 60.682755468451568 ], [ 29.999305338499703, 60.682806611962121 ], [ 29.999644577537424, 60.682887683729881 ], [ 29.999649762151762, 60.682883149363661 ], [ 29.999657014885162, 60.682886409067848 ], [ 29.999691683328894, 60.682879465599477 ], [ 29.999712950255159, 60.682898250239909 ], [ 30.000108946888812, 60.682924393791446 ], [ 30.000374869946292, 60.682913871525031 ], [ 30.000994518281363, 60.682893578135534 ], [ 30.001265790681249, 60.682879518733792 ], [ 30.001786059420432, 60.682816701512358 ], [ 30.002051383067556, 60.682749874269085 ], [ 30.004310753816004, 60.681874735525177 ], [ 30.003965662810295, 60.681682748421146 ], [ 30.003669866815493, 60.681518183599735 ], [ 30.003624442084089, 60.681499130078102 ], [ 30.003570126637225, 60.68145663021 ], [ 30.003008025692409, 60.681643326141774 ], [ 30.003007972353615, 60.681643285465277 ], [ 30.002447162065977, 60.681829573354413 ], [ 30.002447192868139, 60.681829596279982 ], [ 30.001803621143612, 60.682043341018641 ], [ 30.001790004069445, 60.682036655086137 ], [ 30.001709148482892, 60.682074717093151 ], [ 30.00170663893789, 60.682075550638459 ], [ 30.00142373967735, 60.682154210764303 ], [ 30.001259028863306, 60.682188859795204 ], [ 30.001244194156438, 60.682189692190548 ], [ 30.000961520458741, 60.682205554934846 ], [ 30.000773073885629, 60.682204706451387 ], [ 30.000478665291155, 60.682176603381983 ], [ 30.00018492590792, 60.682141932467502 ], [ 29.999947538994128, 60.682121276535518 ], [ 29.999634803645325, 60.682106033088857 ], [ 29.998933373714141, 60.682219431931017 ], [ 29.998327645226475, 60.682288909623622 ], [ 29.998343121272931, 60.682295866083841 ], [ 29.99761829112045, 60.682308046321275 ], [ 29.997597896685143, 60.68231833337304 ], [ 29.99759692768998, 60.682317181315639 ], [ 29.997135669783347, 60.682430478011604 ], [ 29.997135859504553, 60.682430690282459 ], [ 29.997139414964693, 60.682434662045829 ], [ 29.997139576027202, 60.682434840903923 ], [ 29.996816225967148, 60.682462257691419 ], [ 29.996820000655081, 60.682460661807525 ], [ 29.996817263873748, 60.682460881883728 ], [ 29.99606908373552, 60.682542382165892 ], [ 29.995253538887656, 60.682631215752977 ], [ 29.995017042040796, 60.682656974548692 ], [ 29.995016636157459, 60.682656831639008 ], [ 29.994852795628354, 60.682674659825643 ], [ 29.994852482943084, 60.682674898045981 ], [ 29.994053473604495, 60.682761921455679 ], [ 29.991902672914485, 60.682996149928428 ], [ 29.991814288271083, 60.683060888912841 ], [ 29.991917568657612, 60.683049974991604 ], [ 29.992045647407018, 60.683341353027913 ], [ 29.992170058432091, 60.683624380031418 ], [ 29.993136162787145, 60.683508604444157 ], [ 29.994415052904902, 60.683355333482062 ] ] ] ] } },
{ "type": "Feature", "properties": { }, "geometry": { "type": "MultiPolygon", "coordinates": [ [ [ [ 29.988313500751968, 60.68309902090872 ], [ 29.988461702777514, 60.683069567720487 ], [ 29.988465487974349, 60.683071634010034 ], [ 29.988680128851225, 60.683079255520092 ], [ 29.988881965128588, 60.683057721631997 ], [ 29.993534327414292, 60.682561282998407 ], [ 29.994139749858498, 60.682496666935002 ], [ 29.994246095101829, 60.682485317153926 ], [ 29.995627304122575, 60.682337890558259 ], [ 29.995530117777271, 60.682222235201408 ], [ 29.996056478990564, 60.681953038731415 ], [ 29.996524076009607, 60.681676219170981 ], [ 29.996677357675434, 60.681578252079284 ], [ 29.996670373010847, 60.681570412012569 ], [ 29.997323887009212, 60.681498022889812 ], [ 29.997323230758649, 60.681497330080454 ], [ 29.997446794507031, 60.681483341761229 ], [ 29.998118897512285, 60.681422493519463 ], [ 29.998668284286151, 60.681391551266458 ], [ 29.999103648268843, 60.681378525652697 ], [ 29.999217927454591, 60.681377407330309 ], [ 29.999218237275247, 60.681376111242912 ], [ 29.999245482736054, 60.681376047415647 ], [ 29.999265400719846, 60.681366289871811 ], [ 29.999285571478879, 60.681375953401691 ], [ 29.999391973941702, 60.681375704020759 ], [ 29.999560356207152, 60.681374055968114 ], [ 29.999559585719421, 60.681375311000942 ], [ 29.999712509265663, 60.681374952227365 ], [ 30.000244396285215, 60.681382154892873 ], [ 30.000410256593668, 60.681309613739643 ], [ 30.000779748505618, 60.681190207510141 ], [ 30.001433508645555, 60.680993823908977 ], [ 30.002112487908224, 60.680789858677215 ], [ 30.002584224994436, 60.680645124506626 ], [ 30.002412481646012, 60.680520359431682 ], [ 30.002399791900412, 60.680524240351083 ], [ 30.002399678750635, 60.680524161464881 ], [ 30.002021966775903, 60.680257327441907 ], [ 30.002021395428255, 60.680257521663705 ], [ 30.002019436111784, 60.680258193513438 ], [ 30.001721250133631, 60.680045047551815 ], [ 30.001701447741663, 60.680030892311265 ], [ 30.001695200708408, 60.680033187956987 ], [ 30.00110806293776, 60.680248963689934 ], [ 30.000891210505397, 60.680328656811696 ], [ 30.000606747027319, 60.680474815079677 ], [ 30.000544693811822, 60.6807176076099 ], [ 30.000296617167518, 60.680667122316713 ], [ 29.999318759555983, 60.680468118338283 ], [ 29.99846554332477, 60.6802944721599 ], [ 29.997136544570594, 60.681300137969373 ], [ 29.997140665088569, 60.681304490719469 ], [ 29.995244288109085, 60.681461618487731 ], [ 29.995153915104211, 60.681508663172394 ], [ 29.99500912042047, 60.681483196285122 ], [ 29.986930856558899, 60.682357190800545 ], [ 29.986926244409883, 60.682355128842111 ], [ 29.986111710122962, 60.682439631811683 ], [ 29.986950145538206, 60.682813156726027 ], [ 29.98742381823638, 60.683017646988766 ], [ 29.987602967109286, 60.683083595757644 ], [ 29.987826885947257, 60.683153866044698 ], [ 29.988313500751968, 60.68309902090872 ] ] ] ] } },
{ "type": "Feature", "properties": { }, "geometry": { "type": "MultiPolygon", "coordinates": [ [ [ [ 30.005803677527041, 60.680802975569613 ], [ 30.005026752749082, 60.680459889780181 ], [ 30.00502621027853, 60.680588795635003 ], [ 30.005046072798265, 60.680788779963557 ], [ 30.004950069688928, 60.680939340541038 ], [ 30.004750004141158, 60.681062860427957 ], [ 30.004186943633716, 60.681252723588564 ], [ 30.003719838169243, 60.681407257274692 ], [ 30.003733425539814, 60.681417089921503 ], [ 30.004521597078082, 60.681819080550746 ], [ 30.00508078291638, 60.682014305082788 ], [ 30.005362524940388, 60.682072645131207 ], [ 30.005393635013579, 60.682079087245754 ], [ 30.005778418082102, 60.682136553578786 ], [ 30.005829983297797, 60.682141494519456 ], [ 30.006368412820745, 60.681799402101653 ], [ 30.006401729016563, 60.681781635038924 ], [ 30.006265525104013, 60.681735617226465 ], [ 30.006465831549285, 60.681579407737274 ], [ 30.006545782773742, 60.681525478949425 ], [ 30.006668261484421, 60.681442858170591 ], [ 30.006370952044449, 60.681229979383168 ], [ 30.005992527356717, 60.680966138849122 ], [ 30.005803677527041, 60.680802975569613 ] ] ] ] } },
{ "type": "Feature", "properties": { }, "geometry": { "type": "MultiPolygon", "coordinates": [ [ [ [ 29.968788905997474, 60.704538915274931 ], [ 29.968849887980305, 60.704451484673321 ], [ 29.968695308171391, 60.704442231038442 ], [ 29.968473342099493, 60.704434870121105 ], [ 29.967847347484323, 60.704463205128874 ], [ 29.967809231129866, 60.704510831842398 ], [ 29.967606586814814, 60.704478403667643 ], [ 29.967394909026783, 60.704522521082851 ], [ 29.96739225853592, 60.704523073468941 ], [ 29.967282762972324, 60.704545894618406 ], [ 29.967250603950347, 60.704998771759819 ], [ 29.967526671160808, 60.705160472559676 ], [ 29.968285041104259, 60.705261291585231 ], [ 29.968788905997474, 60.704538915274931 ] ] ] ] } },
{ "type": "Feature", "properties": { }, "geometry": { "type": "MultiPolygon", "coordinates": [ [ [ [ 29.96874733145652, 60.705926029041201 ], [ 29.969416222161311, 60.705906922424049 ], [ 29.969413740929699, 60.705918802115043 ], [ 29.970058152184855, 60.705888583764505 ], [ 29.970075795913608, 60.705709087807321 ], [ 29.969481725503545, 60.705593364108509 ], [ 29.968959042526858, 60.705473628905217 ], [ 29.96874733145652, 60.705926029041201 ] ] ] ] } },
{ "type": "Feature", "properties": { }, "geometry": { "type": "MultiPolygon", "coordinates": [ [ [ [ 29.974191976424414, 60.699779956887213 ], [ 29.974324874201489, 60.699222966879255 ], [ 29.974741549084541, 60.699248038443635 ], [ 29.975003799646469, 60.699059328892609 ], [ 29.975147446868959, 60.698954572461425 ], [ 29.975509665329007, 60.69869172913026 ], [ 29.974359767996031, 60.698474773196878 ], [ 29.973873064224701, 60.698814549886578 ], [ 29.973650226455657, 60.698776988848948 ], [ 29.97350543654067, 60.698583335521676 ], [ 29.973419350184706, 60.698469932538877 ], [ 29.973155509100703, 60.698496207076026 ], [ 29.973080680019681, 60.698638446419459 ], [ 29.973110705494246, 60.698711202561725 ], [ 29.973184548595132, 60.698894380835505 ], [ 29.972906220872172, 60.698970063042758 ], [ 29.972897834314701, 60.698986002203107 ], [ 29.972955716161216, 60.699254976619066 ], [ 29.973133278052419, 60.699376020796713 ], [ 29.973265202595414, 60.699522711377305 ], [ 29.97328262397679, 60.700896093462376 ], [ 29.973372880495866, 60.701679206750228 ], [ 29.97345615933779, 60.702155858527888 ], [ 29.973550933964983, 60.702321220482766 ], [ 29.973545292987467, 60.70257267824374 ], [ 29.973798540668028, 60.702616460978668 ], [ 29.973933901177496, 60.702650368713982 ], [ 29.973922071983395, 60.702772042460062 ], [ 29.974070973755733, 60.703031599717377 ], [ 29.974260644239976, 60.703155746122746 ], [ 29.974298162007518, 60.703262826328171 ], [ 29.974583724332277, 60.703312779953592 ], [ 29.974713397380388, 60.703335682062786 ], [ 29.97484835179176, 60.703249836493541 ], [ 29.974873984448028, 60.703074388474469 ], [ 29.974846687547604, 60.702968388058757 ], [ 29.974806521421421, 60.702815393351436 ], [ 29.974690125050333, 60.702692817630137 ], [ 29.974633645668394, 60.702606552694469 ], [ 29.974521116350893, 60.702424098928475 ], [ 29.974448472701503, 60.702133149437827 ], [ 29.974400636530376, 60.701829406608567 ], [ 29.974299128481324, 60.701484340649536 ], [ 29.974263593197161, 60.701178708321592 ], [ 29.974244787847471, 60.70085821323039 ], [ 29.974186324447633, 60.700503471064572 ], [ 29.974154427216575, 60.700010230418521 ], [ 29.974191976424414, 60.699779956887213 ] ] ] ] } },
{ "type": "Feature", "properties": { }, "geometry": { "type": "MultiPolygon", "coordinates": [ [ [ [ 29.980882291236504, 60.714595145654151 ], [ 29.981125264348819, 60.714308119991806 ], [ 29.981273350537176, 60.713917936028217 ], [ 29.981506807641253, 60.713129601968198 ], [ 29.981138557929189, 60.71310277235154 ], [ 29.98051117596334, 60.71305281147594 ], [ 29.979969043283738, 60.713020616487114 ], [ 29.979963081280893, 60.713041871755372 ], [ 29.979781356559091, 60.713030033674478 ], [ 29.979785743095988, 60.713012127380559 ], [ 29.97871941579503, 60.713117272698646 ], [ 29.978703441104155, 60.713139640997703 ], [ 29.978029960591066, 60.713331952493093 ], [ 29.977167467385282, 60.713564219541375 ], [ 29.976694401298584, 60.71391707957703 ], [ 29.976579836169787, 60.714336406355997 ], [ 29.976859376658005, 60.714590939990018 ], [ 29.977268371741811, 60.714538023765961 ], [ 29.977523192865142, 60.71453088855931 ], [ 29.977829940799236, 60.714761648751995 ], [ 29.978341062862466, 60.714698475344612 ], [ 29.978890566322487, 60.714512844477476 ], [ 29.979229419259894, 60.714421497786361 ], [ 29.979428155751407, 60.714449890131064 ], [ 29.979437106784331, 60.714897066401562 ], [ 29.979761317559756, 60.714953288237638 ], [ 29.980278375475304, 60.714829301953259 ], [ 29.980566752433944, 60.714723576256524 ], [ 29.980882291236504, 60.714595145654151 ] ] ] ] } },
{ "type": "Feature", "properties": { }, "geometry": { "type": "MultiPolygon", "coordinates": [ [ [ [ 29.985485286910468, 60.683340861894983 ], [ 29.98716712378625, 60.683169555643552 ], [ 29.987174597583248, 60.683185788479264 ], [ 29.98755152382877, 60.68314280468902 ], [ 29.986537285689813, 60.682704357939713 ], [ 29.985972216197837, 60.68245410296224 ], [ 29.982934463945949, 60.682769200354294 ], [ 29.98281288521946, 60.682750255748225 ], [ 29.982727283821319, 60.683247298558932 ], [ 29.982696644823186, 60.68376042639526 ], [ 29.983053936936606, 60.683688749151329 ], [ 29.983587097309741, 60.683596876343906 ], [ 29.984278414349031, 60.683498649178773 ], [ 29.985143857737583, 60.683385501957829 ], [ 29.985485286910468, 60.683340861894983 ] ] ] ] } },
{ "type": "Feature", "properties": { }, "geometry": { "type": "MultiPolygon", "coordinates": [ [ [ [ 29.981769029341823, 60.683955273666982 ], [ 29.982422935546598, 60.683816519215696 ], [ 29.982495495241011, 60.683316643118197 ], [ 29.982495208789132, 60.683112890790426 ], [ 29.982505039334217, 60.683021605283429 ], [ 29.981748832546049, 60.683118432440345 ], [ 29.97974634427678, 60.683422370079917 ], [ 29.97781500063223, 60.683747747237504 ], [ 29.977808266174993, 60.683932569723886 ], [ 29.977859005455599, 60.683917644909975 ], [ 29.977856718235525, 60.683933761577507 ], [ 29.977813467546287, 60.684214381928484 ], [ 29.980721895342281, 60.684283376134843 ], [ 29.980853909098993, 60.684238179034828 ], [ 29.981769029341823, 60.683955273666982 ] ] ] ] } },
{ "type": "Feature", "properties": { }, "geometry": { "type": "MultiPolygon", "coordinates": [ [ [ [ 29.806973692474084, 60.710398716615735 ], [ 29.805419916180188, 60.710379205134835 ], [ 29.805346680469871, 60.710380142307571 ], [ 29.805191755317981, 60.710397880620611 ], [ 29.80509020213896, 60.710409508870825 ], [ 29.805181442143418, 60.710457681348721 ], [ 29.806112516405918, 60.710949260146961 ], [ 29.806692195591133, 60.711253247176941 ], [ 29.806703892400339, 60.711240638296516 ], [ 29.806737143108055, 60.711204792401603 ], [ 29.806853068829074, 60.711079819268072 ], [ 29.806932047935828, 60.710967048316391 ], [ 29.806972427404709, 60.710854763194853 ], [ 29.807009485024668, 60.710420611823302 ], [ 29.806973692474084, 60.710398716615735 ] ] ] ] } },
{ "type": "Feature", "properties": { }, "geometry": { "type": "MultiPolygon", "coordinates": [ [ [ [ 29.80854958063404, 60.710408843954063 ], [ 29.807253207449847, 60.71037472819058 ], [ 29.807158709769951, 60.710390363843601 ], [ 29.807118410526407, 60.710862527064741 ], [ 29.807074352681038, 60.710985039267428 ], [ 29.806989366803382, 60.711106386341775 ], [ 29.806945644651499, 60.711153522361862 ], [ 29.808698728733773, 60.711864606537546 ], [ 29.809809158671516, 60.711685532589819 ], [ 29.809843216442662, 60.71161523365226 ], [ 29.809934764041589, 60.71045724319081 ], [ 29.80854958063404, 60.710408843954063 ] ] ] ] } },
{ "type": "Feature", "properties": { }, "geometry": { "type": "MultiPolygon", "coordinates": [ [ [ [ 29.809893911605894, 60.718170074197957 ], [ 29.809683510907245, 60.717720042035097 ], [ 29.808414418714214, 60.71773392065905 ], [ 29.808482101080127, 60.717830691305693 ], [ 29.808474777726229, 60.717893330617009 ], [ 29.808389347649481, 60.717969410963718 ], [ 29.808566025606119, 60.718002787864009 ], [ 29.808855266308274, 60.718064485975418 ], [ 29.809291845940479, 60.718148463738771 ], [ 29.809555974122425, 60.718177195449407 ], [ 29.80971799014619, 60.718179235394025 ], [ 29.809893911605894, 60.718170074197957 ] ] ] ] } },
{ "type": "Feature", "properties": { }, "geometry": { "type": "MultiPolygon", "coordinates": [ [ [ [ 29.805982031998983, 60.71806049555817 ], [ 29.806031344206982, 60.71804508973139 ], [ 29.80604716399813, 60.718041814012864 ], [ 29.806212415422912, 60.71798845138764 ], [ 29.805940144618518, 60.717686710604333 ], [ 29.804746228090679, 60.71801922619067 ], [ 29.805033679962982, 60.718303544703531 ], [ 29.805168225106272, 60.718266508071416 ], [ 29.805510962635296, 60.718196584379548 ], [ 29.805674111172539, 60.718133105998291 ], [ 29.805982031998983, 60.71806049555817 ] ] ] ] } },
{ "type": "Feature", "properties": { }, "geometry": { "type": "MultiPolygon", "coordinates": [ [ [ [ 29.961879538202929, 60.716855818132053 ], [ 29.961864224314361, 60.717091300749637 ], [ 29.961960029090616, 60.71714164698497 ], [ 29.962081113028894, 60.71724532551201 ], [ 29.962082301827898, 60.717338161955468 ], [ 29.962179328033763, 60.71749654288147 ], [ 29.962182844378862, 60.717580412216435 ], [ 29.962193522855998, 60.717696250837093 ], [ 29.962217150082399, 60.717789252628535 ], [ 29.962482835992024, 60.717828121574044 ], [ 29.962523114826904, 60.717976125965741 ], [ 29.962298777356089, 60.718117185953496 ], [ 29.962427027218077, 60.718186016029989 ], [ 29.96255326053387, 60.718255805132138 ], [ 29.962733793088784, 60.718346946873048 ], [ 29.962545756448044, 60.71856712324832 ], [ 29.962569198821047, 60.718730961778775 ], [ 29.962744316966258, 60.718866985405477 ], [ 29.962899569774724, 60.718985899152102 ], [ 29.963111208595901, 60.719060306058061 ], [ 29.963316849364933, 60.719131684164132 ], [ 29.963424351281937, 60.719212329171953 ], [ 29.963569781482601, 60.719319201169952 ], [ 29.963710562330725, 60.719445986364882 ], [ 29.963683474301511, 60.71953261473832 ], [ 29.963677719436649, 60.719586447114587 ], [ 29.963318932445794, 60.719594801469057 ], [ 29.963265515655255, 60.719674230597107 ], [ 29.963182408940366, 60.719728530188739 ], [ 29.963227375957771, 60.719855584317919 ], [ 29.963450653422068, 60.719883175640312 ], [ 29.963620603918152, 60.719920363596394 ], [ 29.963608300190213, 60.720056012081749 ], [ 29.963624311833339, 60.720131962670926 ], [ 29.963807398677755, 60.720207163560097 ], [ 29.963971691445607, 60.720232340965921 ], [ 29.964177645357452, 60.72029171993416 ], [ 29.964318979472075, 60.720333691322502 ], [ 29.964437266662532, 60.720397420016056 ], [ 29.964547522632451, 60.720256523172871 ], [ 29.964723527468841, 60.720031260748335 ], [ 29.965026255497438, 60.719790971213527 ], [ 29.96556439087809, 60.719716075882985 ], [ 29.965662925119311, 60.719691856860081 ], [ 29.965437978971547, 60.719452685402686 ], [ 29.965410976936667, 60.719402570587938 ], [ 29.965493183769716, 60.719245508669665 ], [ 29.965428157946612, 60.719107312997338 ], [ 29.96523230880209, 60.719048983976109 ], [ 29.965099062994057, 60.719011062499384 ], [ 29.965003775434401, 60.719061252647897 ], [ 29.964949933107253, 60.719089820399233 ], [ 29.964807049128929, 60.719165608409192 ], [ 29.964579032981586, 60.719160948047907 ], [ 29.964485516571429, 60.719088385813023 ], [ 29.964413854861892, 60.719032979146334 ], [ 29.964510149238837, 60.718947864693888 ], [ 29.964606477758046, 60.718863724251875 ], [ 29.964526793166129, 60.718737388999493 ], [ 29.964308080744836, 60.718563130734289 ], [ 29.96418551486591, 60.718440469566346 ], [ 29.964110639557092, 60.718291206119318 ], [ 29.964241367651088, 60.71821234505898 ], [ 29.964382876529044, 60.718248317780983 ], [ 29.964530785424962, 60.718341227761293 ], [ 29.964673304297385, 60.718344254631781 ], [ 29.964868253441519, 60.718297781521585 ], [ 29.965025156383692, 60.718295950265862 ], [ 29.965167827027045, 60.71829401417034 ], [ 29.965178321643304, 60.71821722176162 ], [ 29.965027690162618, 60.718148261207716 ], [ 29.964853980233269, 60.718100083857571 ], [ 29.964667170657592, 60.718079736836557 ], [ 29.964468787919881, 60.718037377643604 ], [ 29.964316781885806, 60.718011286074798 ], [ 29.964077999406843, 60.717960650018803 ], [ 29.963890974962091, 60.717880425743125 ], [ 29.963878882129841, 60.717743592567103 ], [ 29.963688277384943, 60.717713257986432 ], [ 29.963409738100765, 60.717696223740901 ], [ 29.963278301444515, 60.717530585253492 ], [ 29.963247263532747, 60.717413591706908 ], [ 29.963029575813554, 60.7173381351638 ], [ 29.962694657752376, 60.717231877381856 ], [ 29.962076896505934, 60.716983805888198 ], [ 29.961879538202929, 60.716855818132053 ] ] ] ] } },
{ "type": "Feature", "properties": { }, "geometry": { "type": "MultiPolygon", "coordinates": [ [ [ [ 30.039954033208222, 60.712080261975963 ], [ 30.039916791564387, 60.712491657338575 ], [ 30.039878169002026, 60.712918292189165 ], [ 30.040275364313036, 60.712919242224231 ], [ 30.042504541304293, 60.713361050417461 ], [ 30.042919670261668, 60.712937164837719 ], [ 30.042862882218849, 60.712091291317705 ], [ 30.039954033208222, 60.712080261975963 ] ] ] ] } },
{ "type": "Feature", "properties": { }, "geometry": { "type": "MultiPolygon", "coordinates": [ [ [ [ 29.812124306604126, 60.717224503302084 ], [ 29.811670731018133, 60.71662434288524 ], [ 29.811429316302547, 60.716304897341779 ], [ 29.81100853236169, 60.716179311519362 ], [ 29.810850651075892, 60.716225057607886 ], [ 29.810882280707411, 60.716348472565279 ], [ 29.810150863253085, 60.716396635060867 ], [ 29.809332029443375, 60.716497376437992 ], [ 29.809581611678595, 60.716898914589564 ], [ 29.809773629167584, 60.716868225228041 ], [ 29.810019134607515, 60.717340127764288 ], [ 29.809534102894627, 60.717400462851352 ], [ 29.809683510907245, 60.717720042035097 ], [ 29.809893911605894, 60.718170074197957 ], [ 29.809974596479528, 60.718165873142432 ], [ 29.810399890677449, 60.718117534333693 ], [ 29.811570258490519, 60.717928266095981 ], [ 29.812264884691707, 60.717789444015189 ], [ 29.812632534856743, 60.717698308684646 ], [ 29.81236073248342, 60.717472735105645 ], [ 29.812124306604126, 60.717224503302084 ] ] ] ] } },
{ "type": "Feature", "properties": { }, "geometry": { "type": "MultiPolygon", "coordinates": [ [ [ [ 29.81116273776323, 60.715261761748934 ], [ 29.81056558283321, 60.71519202536431 ], [ 29.810033674556166, 60.715199774832307 ], [ 29.809863883372572, 60.715202248486037 ], [ 29.809746805133823, 60.715203954271885 ], [ 29.808677475786663, 60.715220682880414 ], [ 29.808389100198731, 60.715275615225536 ], [ 29.808348176577919, 60.715412031656243 ], [ 29.808316263275582, 60.715599388596509 ], [ 29.808373791949435, 60.715809510974942 ], [ 29.808532738139682, 60.716047178016787 ], [ 29.808698031310431, 60.71615149366869 ], [ 29.808898522740538, 60.716393359045135 ], [ 29.808900495140527, 60.716473957017023 ], [ 29.808943423800478, 60.716476287235167 ], [ 29.809332029443375, 60.716497376437992 ], [ 29.810150863253085, 60.716396635060867 ], [ 29.81059020701737, 60.716366462582705 ], [ 29.810612241489302, 60.716365105099186 ], [ 29.810688702207926, 60.716360395705031 ], [ 29.810882280707411, 60.716348472565279 ], [ 29.810850651075892, 60.716225057607886 ], [ 29.810828418361957, 60.716138988394029 ], [ 29.810904796670695, 60.716122971524506 ], [ 29.811068326397162, 60.715978832656084 ], [ 29.811114188424686, 60.715820643218379 ], [ 29.81110479102195, 60.715509999472076 ], [ 29.81116273776323, 60.715261761748934 ] ] ] ] } },
{ "type": "Feature", "properties": { }, "geometry": { "type": "MultiPolygon", "coordinates": [ [ [ [ 30.018501360016078, 60.669883904182107 ], [ 30.018841200016158, 60.669765666201009 ], [ 30.019285800016096, 60.669634113813039 ], [ 30.019783320016099, 60.669501855508429 ], [ 30.020238720016128, 60.669453360660633 ], [ 30.023492400016085, 60.667894873700263 ], [ 30.023749080016113, 60.667679016205845 ], [ 30.023756280016087, 60.667678398964206 ], [ 30.023920440016095, 60.667543663648154 ], [ 30.025100160016109, 60.667143157828583 ], [ 30.025298160016135, 60.667075965479121 ], [ 30.025892160016124, 60.666736827150125 ], [ 30.026064240016161, 60.666610200482687 ], [ 30.026158200016116, 60.666562406722484 ], [ 30.028060080016118, 60.667946016195216 ], [ 30.029299200016105, 60.667671785660175 ], [ 30.029264640016116, 60.667679721624872 ], [ 30.028123080016119, 60.667932084282228 ], [ 30.028060800016085, 60.667946016195216 ], [ 30.028007160016138, 60.667958272746596 ], [ 30.026745360016083, 60.668260981631875 ], [ 30.025953000016123, 60.668531062921609 ], [ 30.024990360016094, 60.668859248759041 ], [ 30.024342000016109, 60.669080917794425 ], [ 30.023172360016119, 60.669496476992563 ], [ 30.023126640016109, 60.669678376137639 ], [ 30.022148880016097, 60.670027887654769 ], [ 30.021464160016144, 60.670271591220008 ], [ 30.021366600016073, 60.670199203342051 ], [ 30.021094800016137, 60.669996851467694 ], [ 30.020445360016151, 60.670210400990335 ], [ 30.020140800016112, 60.669986623626762 ], [ 30.019790880016096, 60.670101333966876 ], [ 30.019739760016094, 60.670064125892132 ], [ 30.019291920016151, 60.670211370865182 ], [ 30.019123440016141, 60.670088196523608 ], [ 30.018892320016068, 60.670164111474172 ], [ 30.018501360016078, 60.669883904182107 ] ] ], [ [ [ 30.029339160016082, 60.667662438854762 ], [ 30.028111920016091, 60.667403284368319 ], [ 30.028319640016115, 60.667267577937423 ], [ 30.028323240016142, 60.667269429685973 ], [ 30.02979204001608, 60.667544721781098 ], [ 30.029873760016102, 60.667588722445551 ], [ 30.029889600016151, 60.667586694360097 ], [ 30.029874480016158, 60.667588722445551 ], [ 30.02939532001615, 60.667650975787879 ], [ 30.029340240016083, 60.667662262499903 ], [ 30.029339160016082, 60.667662438854762 ] ] ], [ [ [ 30.029459040016118, 60.664620614995606 ], [ 30.029690160016095, 60.6646209677386 ], [ 30.030148080016154, 60.664583841515622 ], [ 30.030559560016133, 60.664489482513957 ], [ 30.031740720016085, 60.663902422214335 ], [ 30.032277840016135, 60.663635300502889 ], [ 30.032926200016128, 60.663312970099632 ], [ 30.035823840016107, 60.664815240364121 ], [ 30.034862640016115, 60.66546974441421 ], [ 30.033677880016128, 60.666276612664802 ], [ 30.033422280016101, 60.666458794544866 ], [ 30.033228240016136, 60.666591241711771 ], [ 30.033123480016098, 60.66667130937536 ], [ 30.033228240016136, 60.666590800809999 ], [ 30.033238680016098, 60.666583922741424 ], [ 30.029459040016118, 60.664620614995606 ] ] ], [ [ [ 30.031592040016097, 60.667362634223906 ], [ 30.032169120016121, 60.667313430726608 ], [ 30.032168760016098, 60.667313607083365 ], [ 30.031592040016097, 60.667362634223906 ] ] ], [ [ [ 30.033123480016098, 60.66667130937536 ], [ 30.032805240016092, 60.666872888536517 ], [ 30.032407800016106, 60.667141217893956 ], [ 30.032333640016081, 60.667194742411148 ], [ 30.032407800016106, 60.667140776999666 ], [ 30.032804160016092, 60.666873241254827 ], [ 30.033123480016098, 60.66667130937536 ] ] ], [ [ [ 30.026160720016147, 60.66605659977531 ], [ 30.026221560016143, 60.666019475207605 ], [ 30.026116080016134, 60.66592829497138 ], [ 30.026723760016086, 60.665705281487263 ], [ 30.027742560016087, 60.66537812170283 ], [ 30.028014360016112, 60.665083498685618 ], [ 30.028422600016096, 60.664627669855072 ], [ 30.028615560016156, 60.664593365586398 ], [ 30.0285388800161, 60.66469707195261 ], [ 30.028110120016123, 60.665101400131128 ], [ 30.028300200016126, 60.665157485383716 ], [ 30.028575960016116, 60.665263129980964 ], [ 30.02883768001611, 60.665349814729638 ], [ 30.029354280016076, 60.665641789821386 ], [ 30.029346720016079, 60.665690643142057 ], [ 30.029252760016121, 60.665703958745489 ], [ 30.028995720016155, 60.665657221835033 ], [ 30.028800240016153, 60.665599991073044 ], [ 30.028342680016131, 60.665385352763614 ], [ 30.0279643200161, 60.665308809257056 ], [ 30.027878280016083, 60.665405105897065 ], [ 30.02672664001615, 60.665788790473805 ], [ 30.026160720016147, 60.66605659977531 ] ] ] ] } },
{ "type": "Feature", "properties": { }, "geometry": { "type": "MultiPolygon", "coordinates": [ [ [ [ 30.040752600016084, 60.66455147729107 ], [ 30.039171480016112, 60.665411984217471 ], [ 30.038330160016152, 60.665871241055854 ], [ 30.038268600016092, 60.665904044865059 ], [ 30.037124520016153, 60.666527134529233 ], [ 30.036188520016083, 60.667018031805398 ], [ 30.035791440016119, 60.667285566347104 ], [ 30.034524960016121, 60.667234687338819 ], [ 30.034524960016121, 60.667234422803013 ], [ 30.03472656001609, 60.667076230016221 ], [ 30.035222280016125, 60.666723335613881 ], [ 30.035887560016171, 60.666286312597279 ], [ 30.03657300001608, 60.6658772374536 ], [ 30.03706332001612, 60.665606869351834 ], [ 30.037578120016118, 60.66532309504052 ], [ 30.040878240016145, 60.663598702274754 ], [ 30.040878960016119, 60.663598349520562 ], [ 30.041142480016081, 60.664072800438376 ], [ 30.040517880016164, 60.66442766399004 ], [ 30.040752600016084, 60.66455147729107 ] ] ] ] } },
{ "type": "Feature", "properties": { }, "geometry": { "type": "MultiPolygon", "coordinates": [ [ [ [ 30.023329320016074, 60.666921916348166 ], [ 30.023791560016125, 60.666779858940501 ], [ 30.023924400016153, 60.666723335613881 ], [ 30.023964720016071, 60.666680832828696 ], [ 30.023929080016092, 60.666430223979376 ], [ 30.024020880016138, 60.666405092442467 ], [ 30.02435316001613, 60.666559496768038 ], [ 30.024514440016084, 60.666602616975695 ], [ 30.024730800016105, 60.666614785858194 ], [ 30.024992520016095, 60.666511967474278 ], [ 30.024997920016091, 60.666456060942465 ], [ 30.024771120016112, 60.666232962932526 ], [ 30.024807120016128, 60.666183316801479 ], [ 30.024940680016122, 60.666135346044392 ], [ 30.025107720016106, 60.666127409699016 ], [ 30.025283040016138, 60.666188607689428 ], [ 30.025410840016107, 60.666179084090501 ], [ 30.026076120016153, 60.665909159434477 ], [ 30.026116080016134, 60.66592829497138 ], [ 30.026221560016143, 60.666019475207605 ], [ 30.026160720016147, 60.66605659977531 ], [ 30.026272320016123, 60.666083583400955 ], [ 30.026622960016102, 60.66629380799764 ], [ 30.02645844001615, 60.666409325123723 ], [ 30.026158200016116, 60.666562406722484 ], [ 30.026064240016161, 60.666610200482687 ], [ 30.025892160016124, 60.666736827150125 ], [ 30.025298160016135, 60.667075965479121 ], [ 30.025100160016109, 60.667143157828583 ], [ 30.023920440016095, 60.667543663648154 ], [ 30.023756280016087, 60.667678398964206 ], [ 30.023749080016113, 60.667679016205845 ], [ 30.023319600016077, 60.666921210912548 ], [ 30.023329320016074, 60.666921916348166 ] ] ] ] } },
{ "type": "Feature", "properties": { }, "geometry": { "type": "MultiPolygon", "coordinates": [ [ [ [ 30.018892320016068, 60.670164111474172 ], [ 30.019123440016141, 60.670088196523608 ], [ 30.019291920016151, 60.670211370865182 ], [ 30.019739760016094, 60.670064125892132 ], [ 30.019790880016096, 60.670101333966876 ], [ 30.020140800016112, 60.669986623626762 ], [ 30.020445360016151, 60.670210400990335 ], [ 30.021094800016137, 60.669996851467694 ], [ 30.021366600016073, 60.670199203342051 ], [ 30.021464160016144, 60.670271591220008 ], [ 30.02006016001609, 60.670770895620656 ], [ 30.019892760016081, 60.670683608282921 ], [ 30.019722840016129, 60.670738978459937 ], [ 30.019362480016149, 60.670488753877258 ], [ 30.018892320016068, 60.670164111474172 ] ] ] ] } },
{ "type": "Feature", "properties": { }, "geometry": { "type": "MultiPolygon", "coordinates": [ [ [ [ 30.039418080016119, 60.667179222955667 ], [ 30.039355800016086, 60.667442611791095 ], [ 30.039297120016087, 60.667442170900976 ], [ 30.037831560016148, 60.667393584772348 ], [ 30.036379680016086, 60.667309286342579 ], [ 30.035791440016119, 60.667285566347104 ], [ 30.036188520016083, 60.667018031805398 ], [ 30.037124520016153, 60.666527134529233 ], [ 30.038268600016092, 60.665904044865059 ], [ 30.038330160016152, 60.665871241055854 ], [ 30.038800680016077, 60.666042314317238 ], [ 30.038627880016161, 60.666274408134278 ], [ 30.038492520016103, 60.666533748068431 ], [ 30.038767200016096, 60.666566815743948 ], [ 30.038620680016106, 60.666776243566844 ], [ 30.038552280016106, 60.666887614523745 ], [ 30.038913360016149, 60.667018119984604 ], [ 30.039180120016109, 60.667114499691429 ], [ 30.039418080016119, 60.667179222955667 ] ] ] ] } },
{ "type": "Feature", "properties": { }, "geometry": { "type": "MultiPolygon", "coordinates": [ [ [ [ 30.024339120016133, 60.670081671885349 ], [ 30.024777960016138, 60.669898893306055 ], [ 30.024457920016083, 60.669699272871298 ], [ 30.024380520016148, 60.669650249289035 ], [ 30.024324360016081, 60.669640903058017 ], [ 30.024625320016092, 60.669536154547622 ], [ 30.024803520016096, 60.669382029015352 ], [ 30.025069560016092, 60.669289712053093 ], [ 30.025427400016127, 60.669312813361728 ], [ 30.025445760016122, 60.669321013440545 ], [ 30.026557800016111, 60.669966785132971 ], [ 30.02515812001614, 60.670539715912632 ], [ 30.024339120016133, 60.670081671885349 ] ] ] ] } },
{ "type": "Feature", "properties": { }, "geometry": { "type": "MultiPolygon", "coordinates": [ [ [ [ 30.004858800016137, 60.679221834016538 ], [ 30.004713360016147, 60.678969383566319 ], [ 30.004645320016088, 60.67866342577463 ], [ 30.004735680016108, 60.678211050699048 ], [ 30.005204760016095, 60.677763253052056 ], [ 30.005916480016118, 60.67728821050882 ], [ 30.006811800016141, 60.676804522021172 ], [ 30.007294200016066, 60.676484703588635 ], [ 30.007463760016076, 60.676515028295249 ], [ 30.007802160016126, 60.676565892637271 ], [ 30.008472840016079, 60.676664888344504 ], [ 30.008352600016099, 60.676834493817253 ], [ 30.009533040016088, 60.676770583336051 ], [ 30.0095701200161, 60.676837931756751 ], [ 30.00918708001613, 60.677218042190511 ], [ 30.008397600016146, 60.678007515100056 ], [ 30.008381760016093, 60.678018533734075 ], [ 30.00789432001611, 60.678354732481942 ], [ 30.006575280016076, 60.677795868445415 ], [ 30.006008280016072, 60.677977720694741 ], [ 30.005650440016119, 60.678258827166751 ], [ 30.005533800016089, 60.67836125544337 ], [ 30.005297280016112, 60.678634160860803 ], [ 30.005465400016089, 60.678762855764958 ], [ 30.006169200016092, 60.678733679088658 ], [ 30.006864720016122, 60.678986660266375 ], [ 30.006256680016136, 60.679341271301311 ], [ 30.006046800016112, 60.679357930784001 ], [ 30.005822520016068, 60.679479747480187 ], [ 30.005790120016083, 60.679497464631332 ], [ 30.005751240016103, 60.679481422236194 ], [ 30.005673480016142, 60.679523996267257 ], [ 30.005607600016088, 60.679559959380065 ], [ 30.004858800016137, 60.679221834016538 ] ] ] ] } },
{ "type": "Feature", "properties": { }, "geometry": { "type": "MultiPolygon", "coordinates": [ [ [ [ 30.023859240016151, 60.690349105370835 ], [ 30.021797880016074, 60.691057368197569 ], [ 30.021700680016121, 60.690426646724198 ], [ 30.020389200016083, 60.690387876070879 ], [ 30.021492240016137, 60.689406522404994 ], [ 30.023125560016116, 60.689637654728216 ], [ 30.02393412001615, 60.689522132832963 ], [ 30.023922600016096, 60.69030566450823 ], [ 30.023859240016151, 60.690349105370835 ] ] ] ] } },
{ "type": "Feature", "properties": { }, "geometry": { "type": "MultiPolygon", "coordinates": [ [ [ [ 30.006628560016079, 60.67998181779523 ], [ 30.006657360016128, 60.67996401276703 ], [ 30.006684720016146, 60.679947970604488 ], [ 30.006787320016098, 60.679887327632073 ], [ 30.006940680016111, 60.679799007284693 ], [ 30.006981000016125, 60.679694379972688 ], [ 30.006931680016088, 60.679556698020981 ], [ 30.007185480016144, 60.679388429073953 ], [ 30.007254600016118, 60.679342593482772 ], [ 30.007468800016131, 60.679214077188639 ], [ 30.007729800016069, 60.679048891568385 ], [ 30.007865880016094, 60.67896550512215 ], [ 30.008109960016068, 60.678808339594283 ], [ 30.008210040016085, 60.678756156590893 ], [ 30.008264040016144, 60.678762062441812 ], [ 30.008412720016135, 60.678722484405235 ], [ 30.008493720016098, 60.678555885900252 ], [ 30.00857688001615, 60.678470558924545 ], [ 30.008654640016115, 60.678390696901459 ], [ 30.009049920016103, 60.678088964753684 ], [ 30.009064680016067, 60.678088876604811 ], [ 30.00914856001609, 60.678088171413869 ], [ 30.00933396001615, 60.67794871960507 ], [ 30.00956292001613, 60.677761401907098 ], [ 30.00977604001606, 60.677572143812746 ], [ 30.009981960016116, 60.677381826795816 ], [ 30.010087440016125, 60.677286800091885 ], [ 30.010278600016122, 60.677091809353257 ], [ 30.010461480016069, 60.676895142542747 ], [ 30.01068792001611, 60.67662980352496 ], [ 30.010800240016149, 60.676496780582816 ], [ 30.010945680016139, 60.676312716121927 ], [ 30.011071680016141, 60.676151658855069 ], [ 30.011116680016091, 60.676094182284487 ], [ 30.011228280016066, 60.675941763090329 ], [ 30.011349600016125, 60.67576942010129 ], [ 30.011506560016088, 60.675779646104921 ], [ 30.011722560016068, 60.675453029470077 ], [ 30.015810000016089, 60.676860675039826 ], [ 30.016112400016123, 60.67696513526117 ], [ 30.016467360016108, 60.677088812198889 ], [ 30.016071360016145, 60.677279659855095 ], [ 30.016200240016115, 60.677346830908732 ], [ 30.015596160016106, 60.677631733346765 ], [ 30.014772480016074, 60.678020296715182 ], [ 30.014431920016108, 60.677744124549235 ], [ 30.014396280016129, 60.677714241750181 ], [ 30.013097400016139, 60.677268112061427 ], [ 30.011136120016079, 60.677322589402898 ], [ 30.01045608001607, 60.677860834684466 ], [ 30.01038012001608, 60.67808376397025 ], [ 30.010970880016067, 60.678094165536244 ], [ 30.011063760016111, 60.678231324854544 ], [ 30.01116924001612, 60.67838373320572 ], [ 30.011890320016111, 60.678817859457432 ], [ 30.012414840016106, 60.678773962287366 ], [ 30.013452360016128, 60.678690486981495 ], [ 30.01346460001615, 60.678693660281141 ], [ 30.013328880016157, 60.678769114202659 ], [ 30.012584760016146, 60.67922165772498 ], [ 30.011988240016127, 60.679612405514142 ], [ 30.011524200016108, 60.679889266798639 ], [ 30.011439240016088, 60.679945238147418 ], [ 30.010747680016113, 60.679661590214295 ], [ 30.010161960016084, 60.679420513948926 ], [ 30.009695400016128, 60.679227916073501 ], [ 30.007783440016105, 60.680285206909772 ], [ 30.007423080016125, 60.680435490115471 ], [ 30.00711492001615, 60.680205790105305 ], [ 30.006802440016088, 60.680040874006259 ], [ 30.006628560016079, 60.67998181779523 ] ] ] ] } },
{ "type": "Feature", "properties": { }, "geometry": { "type": "MultiPolygon", "coordinates": [ [ [ [ 30.037860720016131, 60.683689456203112 ], [ 30.035673360016148, 60.683960906310482 ], [ 30.035548440016147, 60.68397615327779 ], [ 30.036233880016152, 60.683301401958936 ], [ 30.036299040016154, 60.683317089911483 ], [ 30.037860720016131, 60.683689456203112 ] ] ] ] } },
{ "type": "Feature", "properties": { }, "geometry": { "type": "MultiPolygon", "coordinates": [ [ [ [ 30.070476720016106, 60.676865435259813 ], [ 30.070581120016115, 60.676853711012988 ], [ 30.070528560016168, 60.677443444146824 ], [ 30.071099520016144, 60.677364196630748 ], [ 30.071111040016103, 60.677454903727018 ], [ 30.071138040016177, 60.677667786724264 ], [ 30.071441160016096, 60.677736631814611 ], [ 30.071617560016133, 60.677776828111661 ], [ 30.071375280016127, 60.678060580806857 ], [ 30.071014920016147, 60.678165213430894 ], [ 30.07049508001619, 60.67835993322155 ], [ 30.070059120016147, 60.678728919145009 ], [ 30.06961524001618, 60.678772375641543 ], [ 30.068904960016091, 60.678623318732335 ], [ 30.068714880016095, 60.678586913835339 ], [ 30.06879624001618, 60.678424193138341 ], [ 30.069001440016173, 60.677596120679951 ], [ 30.070228320016131, 60.677186131422275 ], [ 30.070476720016106, 60.676865435259813 ] ] ] ] } },
{ "type": "Feature", "properties": { }, "geometry": { "type": "MultiPolygon", "coordinates": [ [ [ [ 30.070476720016106, 60.676865435259813 ], [ 30.070228320016131, 60.677186131422275 ], [ 30.069001440016173, 60.677596120679951 ], [ 30.06900900001617, 60.677565973292587 ], [ 30.069994320016178, 60.676939835643758 ], [ 30.070109880016126, 60.676906426013964 ], [ 30.070476720016106, 60.676865435259813 ] ] ] ] } },
{ "type": "Feature", "properties": { }, "geometry": { "type": "MultiPolygon", "coordinates": [ [ [ [ 30.141151920016171, 60.636203452924121 ], [ 30.141357120016163, 60.636172648923761 ], [ 30.141383040016148, 60.636163822557165 ], [ 30.142784880016205, 60.635927186768733 ], [ 30.143827440016192, 60.635751275487813 ], [ 30.143828160016167, 60.635754276491113 ], [ 30.143928960016151, 60.636132753727665 ], [ 30.141157680016192, 60.636535587024035 ], [ 30.141151560016137, 60.636243524559646 ], [ 30.141151920016171, 60.636203452924121 ] ] ] ] } },
{ "type": "Feature", "properties": { }, "geometry": { "type": "MultiPolygon", "coordinates": [ [ [ [ 30.138103080016165, 60.635623644323857 ], [ 30.138102360016198, 60.635623732589018 ], [ 30.138102360016198, 60.635623997384506 ], [ 30.137955480016178, 60.635638737662127 ], [ 30.137102280016137, 60.635705642550143 ], [ 30.137097240016161, 60.635714733836885 ], [ 30.137112720016191, 60.635766721825377 ], [ 30.13702020001617, 60.635773341682061 ], [ 30.13658100001614, 60.635796202243377 ], [ 30.136561560016144, 60.635734769964643 ], [ 30.136404960016133, 60.635200851450847 ], [ 30.137939280016187, 60.635085045838487 ], [ 30.138103080016165, 60.635623644323857 ] ] ] ] } },
{ "type": "Feature", "properties": { }, "geometry": { "type": "MultiPolygon", "coordinates": [ [ [ [ 30.012414840016106, 60.678773962287366 ], [ 30.011890320016111, 60.678817859457432 ], [ 30.01116924001612, 60.67838373320572 ], [ 30.011063760016111, 60.678231324854544 ], [ 30.010970880016067, 60.678094165536244 ], [ 30.01038012001608, 60.67808376397025 ], [ 30.01045608001607, 60.677860834684466 ], [ 30.011136120016079, 60.677322589402898 ], [ 30.013097400016139, 60.677268112061427 ], [ 30.014396280016129, 60.677714241750181 ], [ 30.014431920016108, 60.677744124549235 ], [ 30.014772480016074, 60.678020296715182 ], [ 30.014020080016092, 60.678384879130455 ], [ 30.01346460001615, 60.678693660281141 ], [ 30.013452360016128, 60.678690486981495 ], [ 30.012414840016106, 60.678773962287366 ] ] ] ] } },
{ "type": "Feature", "properties": { }, "geometry": { "type": "MultiPolygon", "coordinates": [ [ [ [ 30.028060080016118, 60.667946016195216 ], [ 30.026158200016116, 60.666562406722484 ], [ 30.02645844001615, 60.666409236942869 ], [ 30.026622960016102, 60.66629380799764 ], [ 30.026272320016123, 60.666083583400955 ], [ 30.026160720016147, 60.66605659977531 ], [ 30.02672664001615, 60.665788790473805 ], [ 30.027878280016083, 60.665405105897065 ], [ 30.0279643200161, 60.665308809257056 ], [ 30.028342680016131, 60.665385352763614 ], [ 30.028800240016153, 60.665599991073044 ], [ 30.028995720016155, 60.665657221835033 ], [ 30.029252760016121, 60.665703958745489 ], [ 30.029346720016079, 60.665690643142057 ], [ 30.029354280016076, 60.665641789821386 ], [ 30.02883768001611, 60.665349814729638 ], [ 30.028575960016116, 60.665263129980964 ], [ 30.028300200016126, 60.665157485383716 ], [ 30.028110120016123, 60.665101400131128 ], [ 30.0285388800161, 60.66469707195261 ], [ 30.028615560016156, 60.664593365586398 ], [ 30.029180040016126, 60.66462017406684 ], [ 30.029459040016118, 60.664620614995606 ], [ 30.033238680016098, 60.666583922741424 ], [ 30.033228240016136, 60.666590800809999 ], [ 30.033123480016098, 60.66667130937536 ], [ 30.032804160016092, 60.666873241254827 ], [ 30.032407800016106, 60.667140776999666 ], [ 30.032170560016155, 60.667313254369823 ], [ 30.031405560016125, 60.667378506303763 ], [ 30.030809040016106, 60.66746783069614 ], [ 30.029965200016118, 60.667576994819427 ], [ 30.029873760016102, 60.667588722445551 ], [ 30.02979204001608, 60.667544721781098 ], [ 30.028323240016142, 60.667269429685973 ], [ 30.028319640016115, 60.667267577937423 ], [ 30.028111920016091, 60.667403284368319 ], [ 30.029340240016083, 60.667662615209622 ], [ 30.028060080016118, 60.667946016195216 ] ] ] ] } },
{ "type": "Feature", "properties": { }, "geometry": { "type": "MultiPolygon", "coordinates": [ [ [ [ 30.140653680016193, 60.635462648276054 ], [ 30.140661960016157, 60.635499455009153 ], [ 30.140180640016151, 60.635532466288083 ], [ 30.14017200001615, 60.635506427982648 ], [ 30.139921080016155, 60.63545187987134 ], [ 30.13981776001614, 60.635500690726111 ], [ 30.1394991600162, 60.635524787196793 ], [ 30.139487280016201, 60.635491511113472 ], [ 30.1391168400162, 60.635516137183735 ], [ 30.138945120016192, 60.635180991523995 ], [ 30.139174800016146, 60.635165280106563 ], [ 30.139311960016169, 60.635014608989749 ], [ 30.139288920016146, 60.634874529235383 ], [ 30.139495920016198, 60.634707968584081 ], [ 30.139725960016186, 60.634772845251675 ], [ 30.139784280016155, 60.634789262999952 ], [ 30.140475120016159, 60.634989894269474 ], [ 30.140653680016193, 60.635462648276054 ] ] ] ] } },
{ "type": "Feature", "properties": { }, "geometry": { "type": "MultiPolygon", "coordinates": [ [ [ [ 30.135024000016184, 60.635590986199361 ], [ 30.135415320016211, 60.634986098792893 ], [ 30.135416040016182, 60.634986098792893 ], [ 30.135859920016149, 60.63506006637212 ], [ 30.135940560016177, 60.635073571174381 ], [ 30.136107600016153, 60.635641738675893 ], [ 30.135922200016182, 60.635720471055379 ], [ 30.135024000016184, 60.635590986199361 ] ] ] ] } },
{ "type": "Feature", "properties": { }, "geometry": { "type": "MultiPolygon", "coordinates": [ [ [ [ 30.132027360016192, 60.634684930715594 ], [ 30.13414812001615, 60.63457821485725 ], [ 30.13424820001616, 60.634791469685915 ], [ 30.135416040016182, 60.634986098792893 ], [ 30.135415320016211, 60.634986098792893 ], [ 30.135024000016184, 60.635590986199361 ], [ 30.133835640016176, 60.635419574635655 ], [ 30.132131040016141, 60.635173930213767 ], [ 30.132027360016192, 60.634684930715594 ] ] ] ] } },
{ "type": "Feature", "properties": { }, "geometry": { "type": "MultiPolygon", "coordinates": [ [ [ [ 30.132512640016174, 60.633724916625006 ], [ 30.132837720016202, 60.633710705094657 ], [ 30.133833840016209, 60.633662597693956 ], [ 30.133869120016158, 60.633838343832039 ], [ 30.133962720016179, 60.63382907547598 ], [ 30.134048760016196, 60.633820866358434 ], [ 30.134043000016167, 60.633875682039339 ], [ 30.134168280016201, 60.633869679682675 ], [ 30.134281680016148, 60.634384642510369 ], [ 30.135181680016203, 60.63433803668282 ], [ 30.13535232001621, 60.634390291697038 ], [ 30.136131000016203, 60.634672838034767 ], [ 30.136024800016223, 60.63476384196688 ], [ 30.136057200016207, 60.634773639659052 ], [ 30.135809520016199, 60.634969063276259 ], [ 30.135859920016149, 60.63506006637212 ], [ 30.135415320016211, 60.634986010525985 ], [ 30.134558520016132, 60.63470223118545 ], [ 30.134184120016165, 60.634654919674539 ], [ 30.13414812001615, 60.63457821485725 ], [ 30.133739520016132, 60.634598781299104 ], [ 30.132678960016182, 60.634464613716588 ], [ 30.132512640016174, 60.633724916625006 ] ] ] ] } },
{ "type": "Feature", "properties": { }, "geometry": { "type": "MultiPolygon", "coordinates": [ [ [ [ 30.005445240016126, 60.638799886035009 ], [ 30.00547044001615, 60.638963424840803 ], [ 30.005565120016072, 60.639080452100806 ], [ 30.004779600016146, 60.639116283891795 ], [ 30.00484836001608, 60.639521551030953 ], [ 30.004718760016143, 60.639525610737003 ], [ 30.004330680016114, 60.639534083165294 ], [ 30.004205760016113, 60.639079128265372 ], [ 30.004521840016118, 60.639059712006478 ], [ 30.004477920016079, 60.638645789887264 ], [ 30.004472160016139, 60.638576508160376 ], [ 30.004571160016059, 60.638572095306472 ], [ 30.005424360016107, 60.638535733367412 ], [ 30.005445240016126, 60.638799886035009 ] ] ] ] } },
{ "type": "Feature", "properties": { }, "geometry": { "type": "MultiPolygon", "coordinates": [ [ [ [ 30.027063156386237, 60.713452748796868 ], [ 30.02695272343788, 60.71311573183435 ], [ 30.026900560693047, 60.713118756350383 ], [ 30.02683170409955, 60.713122749088377 ], [ 30.026832171999715, 60.713116151794715 ], [ 30.026315888780356, 60.713131669851919 ], [ 30.026141388381735, 60.713158892755068 ], [ 30.02614052294345, 60.713164478394475 ], [ 30.02603483369364, 60.713172192970738 ], [ 30.026113537419572, 60.714557812635967 ], [ 30.027065906236928, 60.714564374017435 ], [ 30.027042993172778, 60.714759383823136 ], [ 30.027053011450782, 60.71476783123893 ], [ 30.028019566159909, 60.714771680517991 ], [ 30.028018761346253, 60.714553961508692 ], [ 30.028049149363564, 60.713493476813589 ], [ 30.027063156386237, 60.713452748796868 ] ] ] ] } },
{ "type": "Feature", "properties": { }, "geometry": { "type": "MultiPolygon", "coordinates": [ [ [ [ 30.034581813536189, 60.713259900586287 ], [ 30.034562912235881, 60.713802261120982 ], [ 30.033456040783854, 60.71380438039931 ], [ 30.033456375647066, 60.713805769279993 ], [ 30.033470360363914, 60.714519888567764 ], [ 30.033493534431074, 60.715703115043816 ], [ 30.033611126038117, 60.715831202028582 ], [ 30.036502745455156, 60.715859425885583 ], [ 30.036524397636921, 60.715706834071973 ], [ 30.036576629312442, 60.714816153801458 ], [ 30.036591547504138, 60.714561745353308 ], [ 30.036871489463952, 60.71446182567891 ], [ 30.037107986923395, 60.714349131206973 ], [ 30.037187505872947, 60.714311238971412 ], [ 30.037189219262597, 60.714294500986227 ], [ 30.03723217752907, 60.713874865649728 ], [ 30.037303140267905, 60.713181661576172 ], [ 30.037039710438584, 60.713188790716565 ], [ 30.036717079834961, 60.713198127663141 ], [ 30.034581813536189, 60.713259900586287 ] ] ] ] } },
{ "type": "Feature", "properties": { }, "geometry": { "type": "MultiPolygon", "coordinates": [ [ [ [ 29.843146279294523, 60.703281501780957 ], [ 29.843146919557032, 60.703279705763194 ], [ 29.84360127254601, 60.703318113569942 ], [ 29.84344838357849, 60.70365185324922 ], [ 29.844006235708836, 60.703716891210505 ], [ 29.844055249183029, 60.703675520771689 ], [ 29.844432453255536, 60.703375730565156 ], [ 29.845695839302472, 60.702439591626721 ], [ 29.845697695557867, 60.702438216609806 ], [ 29.845542861331943, 60.702371480807223 ], [ 29.844773701811427, 60.70234973598447 ], [ 29.844772942939585, 60.702351512272386 ], [ 29.844654097387298, 60.702629843470852 ], [ 29.844653915841239, 60.702629845473751 ], [ 29.844088210130096, 60.702636725730116 ], [ 29.844125975621765, 60.702452209058322 ], [ 29.842985595980274, 60.702388613362103 ], [ 29.842604353649705, 60.70339266111052 ], [ 29.842604345617524, 60.703392686983534 ], [ 29.842591962830749, 60.703425293501276 ], [ 29.842509384829413, 60.703669951875419 ], [ 29.842486984336997, 60.703736325054294 ], [ 29.842972724407172, 60.703767276188195 ], [ 29.842973024254988, 60.703767295718919 ], [ 29.843146279294523, 60.703281501780957 ] ] ] ] } },
{ "type": "Feature", "properties": { }, "geometry": { "type": "MultiPolygon", "coordinates": [ [ [ [ 29.841734284453473, 60.70504495598513 ], [ 29.841734902953839, 60.705043162396827 ], [ 29.842416672416459, 60.705091146760992 ], [ 29.842416796454923, 60.70509115586421 ], [ 29.842687982787538, 60.704497790175793 ], [ 29.842687860429916, 60.704497780189143 ], [ 29.841317717145561, 60.704381258447839 ], [ 29.841002595966071, 60.705318198075354 ], [ 29.841629853688648, 60.705346479095482 ], [ 29.841630173872396, 60.705346493501743 ], [ 29.841734284453473, 60.70504495598513 ] ] ] ] } },
{ "type": "Feature", "properties": { }, "geometry": { "type": "MultiPolygon", "coordinates": [ [ [ [ 29.841286807636383, 60.703225821880473 ], [ 29.840723276098853, 60.703170498999263 ], [ 29.840558625759879, 60.70315433435762 ], [ 29.840476433796407, 60.703410842521656 ], [ 29.840329735510551, 60.703868651820613 ], [ 29.839983216734801, 60.703892735557602 ], [ 29.839956089636878, 60.704223662633538 ], [ 29.840341832745835, 60.70426831026321 ], [ 29.840083192364951, 60.704954669014462 ], [ 29.840569845751389, 60.704981634119292 ], [ 29.840862528598098, 60.704313713031198 ], [ 29.8411488074468, 60.703582786455193 ], [ 29.841286807636383, 60.703225821880473 ] ] ] ] } },
{ "type": "Feature", "properties": { }, "geometry": { "type": "MultiPolygon", "coordinates": [ [ [ [ 29.842041465838719, 60.703643730943199 ], [ 29.842137301112466, 60.703282738899546 ], [ 29.841666546751217, 60.703264406042862 ], [ 29.84166587741927, 60.703266187632209 ], [ 29.841536973348813, 60.703609288579038 ], [ 29.841536708440561, 60.703609270231667 ], [ 29.841476422234997, 60.703605154370351 ], [ 29.841365270527024, 60.703597565070794 ], [ 29.841364957570455, 60.703598356909183 ], [ 29.841085687141263, 60.704304852077051 ], [ 29.841926064212075, 60.70439104293829 ], [ 29.841973801443419, 60.704273650318768 ], [ 29.842169376239234, 60.70367201775629 ], [ 29.842175594661686, 60.703652888288531 ], [ 29.842041465838719, 60.703643730943199 ] ] ] ] } },
{ "type": "Feature", "properties": { }, "geometry": { "type": "MultiPolygon", "coordinates": [ [ [ [ 29.842696325272776, 60.704460347530897 ], [ 29.842849866514655, 60.704124384541437 ], [ 29.842530320540352, 60.704092370476175 ], [ 29.842485235400275, 60.704132687780721 ], [ 29.842188774596263, 60.704113104573239 ], [ 29.842034890088371, 60.70439452316711 ], [ 29.842696325272776, 60.704460347530897 ] ] ] ] } },
{ "type": "Feature", "properties": { }, "geometry": { "type": "MultiPolygon", "coordinates": [ [ [ [ 29.806426025041386, 60.716861052847442 ], [ 29.807169493656371, 60.716818166319818 ], [ 29.807547207208824, 60.71684415187412 ], [ 29.807603820117976, 60.716899765885586 ], [ 29.80776135392421, 60.716860812907505 ], [ 29.80775666538516, 60.716852858174121 ], [ 29.807832995019069, 60.716843098440293 ], [ 29.808040078145542, 60.716816620150858 ], [ 29.808010149653288, 60.71671298629871 ], [ 29.807796873125906, 60.716299543252262 ], [ 29.807483553266387, 60.716340716051221 ], [ 29.806825974907323, 60.716182523873343 ], [ 29.806490380886306, 60.716243388043182 ], [ 29.806343853991802, 60.7160877575106 ], [ 29.806034283288049, 60.716138071758287 ], [ 29.80603011075954, 60.716148383408637 ], [ 29.805906571019655, 60.716174679263545 ], [ 29.805770543409899, 60.716239040142867 ], [ 29.805768171274345, 60.71623959154919 ], [ 29.805530681031048, 60.716294824840041 ], [ 29.805181028257028, 60.716062157487073 ], [ 29.80509426124603, 60.716008730161214 ], [ 29.805054579152831, 60.71602289695322 ], [ 29.804768616578713, 60.716135171129707 ], [ 29.804574421367814, 60.716211414758831 ], [ 29.804322630233571, 60.716310271560289 ], [ 29.804040181076463, 60.71648141305694 ], [ 29.803883621380677, 60.7165776084763 ], [ 29.803936695285202, 60.716662722683445 ], [ 29.803939498215094, 60.716660967503529 ], [ 29.804093969415764, 60.716914940796968 ], [ 29.804369780276119, 60.717349922886036 ], [ 29.804035750060081, 60.717467875660248 ], [ 29.804045457450712, 60.717475370981276 ], [ 29.80393789775442, 60.717533769030865 ], [ 29.803948449856506, 60.717534477851572 ], [ 29.804385964140124, 60.717872299004938 ], [ 29.804454892014022, 60.717925519275845 ], [ 29.804562241149856, 60.718008405517132 ], [ 29.80467025765105, 60.71795779954585 ], [ 29.804742478419321, 60.717937686647382 ], [ 29.805822772158898, 60.717626621344735 ], [ 29.806021523026786, 60.717566189221714 ], [ 29.805985618479358, 60.717537379218307 ], [ 29.806653459165211, 60.71743588370289 ], [ 29.806426025041386, 60.716861052847442 ] ] ] ] } },
{ "type": "Feature", "properties": { }, "geometry": { "type": "MultiPolygon", "coordinates": [ [ [ [ 29.963469409379442, 60.714790021632922 ], [ 29.963371745199385, 60.713760339172374 ], [ 29.96342526441402, 60.713334743048279 ], [ 29.962672074332119, 60.713336159732783 ], [ 29.962571774282235, 60.713941133956567 ], [ 29.962242428695035, 60.714762641072326 ], [ 29.962317161107979, 60.714863794066858 ], [ 29.962687005539458, 60.714959346820919 ], [ 29.963085315521511, 60.714990238550968 ], [ 29.963483787267286, 60.714859835582978 ], [ 29.963469409379442, 60.714790021632922 ] ] ] ] } },
{ "type": "Feature", "properties": { }, "geometry": { "type": "MultiPolygon", "coordinates": [ [ [ [ 30.031108563350081, 60.715697015822407 ], [ 30.031328980337726, 60.715688296632614 ], [ 30.033493534431074, 60.715703115043816 ], [ 30.033513351809962, 60.7150074368733 ], [ 30.03350836174339, 60.714574640114932 ], [ 30.033505008663518, 60.714520125495767 ], [ 30.033472848402628, 60.713997380258014 ], [ 30.033475990091617, 60.713887090098034 ], [ 30.033456375647066, 60.713805769279993 ], [ 30.033453541104514, 60.713794019207285 ], [ 30.033336586991481, 60.713309119665908 ], [ 30.033327034751359, 60.713308698913053 ], [ 30.033290971558483, 60.713256068935422 ], [ 30.031187624847448, 60.71314368931008 ], [ 30.031186771342394, 60.713155225582099 ], [ 30.031141681656177, 60.713149836544417 ], [ 30.031084873511279, 60.714532589993361 ], [ 30.02911014330077, 60.714544493275802 ], [ 30.029122695122098, 60.713500857229114 ], [ 30.028049149363564, 60.713493476813589 ], [ 30.028018761346253, 60.714553961508692 ], [ 30.028019566159909, 60.714771680517991 ], [ 30.028194209723225, 60.714772375543376 ], [ 30.028169557008049, 60.715013898718013 ], [ 30.028563719974461, 60.715024219209994 ], [ 30.029091265969459, 60.715010344011851 ], [ 30.031076125846809, 60.715004221293881 ], [ 30.031108444415388, 60.71569449654374 ], [ 30.031108563350081, 60.715697015822407 ] ] ] ] } },
{ "type": "Feature", "properties": { }, "geometry": { "type": "MultiPolygon", "coordinates": [ [ [ [ 29.808432894493439, 60.719055281225046 ], [ 29.808429268941754, 60.71880476284317 ], [ 29.807651997646651, 60.718825844229961 ], [ 29.80740550946874, 60.718389752288452 ], [ 29.806900006936175, 60.718344323418485 ], [ 29.806670518188696, 60.718103410411999 ], [ 29.806647378536212, 60.718106802381484 ], [ 29.806358444468763, 60.718162483194511 ], [ 29.80619379754835, 60.718196568865316 ], [ 29.805826160434723, 60.718311419185 ], [ 29.805409100871387, 60.718436276156154 ], [ 29.804857301709863, 60.71857895426858 ], [ 29.805018409764571, 60.718840927428943 ], [ 29.80560326902879, 60.719344965636623 ], [ 29.805648723299598, 60.719384138269767 ], [ 29.805753949820581, 60.719385526620087 ], [ 29.806311133861559, 60.719336251281895 ], [ 29.807078909330173, 60.719123185656848 ], [ 29.807507332766342, 60.719052287429541 ], [ 29.808432894493439, 60.719055281225046 ] ] ] ] } },
{ "type": "Feature", "properties": { }, "geometry": { "type": "MultiPolygon", "coordinates": [ [ [ [ 29.810019134607515, 60.717340127764288 ], [ 29.809773629167584, 60.716868225228041 ], [ 29.809773387730718, 60.716867759135546 ], [ 29.809581611678595, 60.716898914589564 ], [ 29.809332029443375, 60.716497376437992 ], [ 29.808943423800478, 60.716476287235167 ], [ 29.808900495140527, 60.716473957017023 ], [ 29.808905718601501, 60.716572140831609 ], [ 29.808500242658347, 60.716601592773443 ], [ 29.80823336880723, 60.71663611971649 ], [ 29.808312106156492, 60.716781837161236 ], [ 29.80775666538516, 60.716852858174121 ], [ 29.807936378866277, 60.717157764895838 ], [ 29.808097719357768, 60.717351303674334 ], [ 29.808232929737088, 60.717474436545785 ], [ 29.808873879381672, 60.717482587376281 ], [ 29.809534102894627, 60.717400462851352 ], [ 29.810019134607515, 60.717340127764288 ] ] ] ] } },
{ "type": "Feature", "properties": { }, "geometry": { "type": "MultiPolygon", "coordinates": [ [ [ [ 29.964222471265263, 60.71219107705344 ], [ 29.963620333407473, 60.712067890975291 ], [ 29.964169349639697, 60.71166476795505 ], [ 29.964297452251913, 60.710308501501359 ], [ 29.965111396277401, 60.710297520279006 ], [ 29.965214103557479, 60.70920402579118 ], [ 29.963724979973957, 60.70921852212151 ], [ 29.963578991618288, 60.709463442961315 ], [ 29.963259529764922, 60.70944989352143 ], [ 29.96310654160229, 60.71042292950343 ], [ 29.963546945613359, 60.71042617182745 ], [ 29.963489133373301, 60.710733919463713 ], [ 29.963066874350261, 60.710712843771176 ], [ 29.962891710127547, 60.712011303168694 ], [ 29.962702045204551, 60.713155379507661 ], [ 29.963447129940079, 60.713160866019777 ], [ 29.964209900660876, 60.713166478473411 ], [ 29.964222471265263, 60.71219107705344 ] ] ] ] } },
{ "type": "Feature", "properties": { }, "geometry": { "type": "MultiPolygon", "coordinates": [ [ [ [ 29.962935706881627, 60.709436160502264 ], [ 29.962852899866306, 60.709432647945953 ], [ 29.961937524530278, 60.709511797596861 ], [ 29.961939714827835, 60.709135435617057 ], [ 29.960532208642476, 60.709097596198468 ], [ 29.960503668685824, 60.709840966444254 ], [ 29.960480601319361, 60.710441753531917 ], [ 29.960446597474977, 60.711327386069641 ], [ 29.961750168373317, 60.71136440379059 ], [ 29.961730626434552, 60.711607118183196 ], [ 29.962657532640385, 60.711632377309947 ], [ 29.962827370026165, 60.710058551763964 ], [ 29.962935706881627, 60.709436160502264 ] ] ] ] } },
{ "type": "Feature", "properties": { }, "geometry": { "type": "MultiPolygon", "coordinates": [ [ [ [ 29.960903318073619, 60.71329260666402 ], [ 29.9607757361395, 60.713069017363651 ], [ 29.96180477463237, 60.712966744427526 ], [ 29.962444230847073, 60.712903186487758 ], [ 29.962581406770219, 60.712266345018691 ], [ 29.962596852598093, 60.712194635157715 ], [ 29.962606790856938, 60.712102550105449 ], [ 29.961689903460524, 60.712112860492766 ], [ 29.961334718180584, 60.712146772434359 ], [ 29.959321020202967, 60.712168434447371 ], [ 29.959268927746066, 60.713238495374476 ], [ 29.960314008311727, 60.713167372310572 ], [ 29.96086079601535, 60.713275745757571 ], [ 29.960873668210589, 60.713278297315973 ], [ 29.960903318073619, 60.71329260666402 ] ] ] ] } }
]
}
