{
"type": "FeatureCollection",
"generator": "overpass-turbo",
"copyright": "The data included in this document is from www.openstreetmap.org. The data is made available under ODbL.",
"timestamp": "2025-12-03T16:19:43Z",
"name": "public_transport",
"features": [
{ "type": "Feature", "id": "way/52515864", "properties": { "@id": "way/52515864", "area": "yes", "public_transport": "platform", "railway": "platform", "ref": "2", "surface": "paved", "train": "yes", "@relations": [ { "role": "platform", "rel": 12403728, "reltags": { "esr:user": "037503", "name": "Сосново", "public_transport": "stop_area", "railway": "facility", "train": "yes", "type": "public_transport", "uic_ref": "2004683" } } ] }, "geometry": { "type": "Polygon", "coordinates": [ [ [ 30.2168917, 60.546606 ], [ 30.2169534, 60.5466166 ], [ 30.2155644, 60.5484048 ], [ 30.2155141, 60.5483951 ], [ 30.2154554, 60.5483839 ], [ 30.2168262, 60.5465947 ], [ 30.2168917, 60.546606 ] ] ] } },
{ "type": "Feature", "id": "way/52515865", "properties": { "@id": "way/52515865", "area": "yes", "public_transport": "platform", "railway": "platform", "ref": "1", "surface": "paved", "train": "yes", "@relations": [ { "role": "platform", "rel": 12403728, "reltags": { "esr:user": "037503", "name": "Сосново", "public_transport": "stop_area", "railway": "facility", "train": "yes", "type": "public_transport", "uic_ref": "2004683" } } ] }, "geometry": { "type": "Polygon", "coordinates": [ [ [ 30.2172297, 60.5466707 ], [ 30.2158737, 60.5484421 ], [ 30.2158239, 60.5484317 ], [ 30.2157691, 60.5484203 ], [ 30.2171198, 60.5466496 ], [ 30.2171754, 60.5466603 ], [ 30.2172297, 60.5466707 ] ] ] } },
{ "type": "Feature", "id": "way/52515865", "properties": { "@id": "way/52515865", "@relations": [ { "role": "platform", "rel": 12403728, "reltags": { "esr:user": "037503", "name": "Сосново", "public_transport": "stop_area", "railway": "facility", "train": "yes", "type": "public_transport", "uic_ref": "2004683" } } ] }, "geometry": { "type": "LineString", "coordinates": [ [ 30.2172297, 60.5466707 ], [ 30.2158737, 60.5484421 ], [ 30.2158239, 60.5484317 ], [ 30.2157691, 60.5484203 ], [ 30.2171198, 60.5466496 ], [ 30.2171754, 60.5466603 ], [ 30.2172297, 60.5466707 ] ] } },
{ "type": "Feature", "id": "way/52515864", "properties": { "@id": "way/52515864", "@relations": [ { "role": "platform", "rel": 12403728, "reltags": { "esr:user": "037503", "name": "Сосново", "public_transport": "stop_area", "railway": "facility", "train": "yes", "type": "public_transport", "uic_ref": "2004683" } } ] }, "geometry": { "type": "LineString", "coordinates": [ [ 30.2168917, 60.546606 ], [ 30.2168262, 60.5465947 ], [ 30.2154554, 60.5483839 ], [ 30.2155141, 60.5483951 ], [ 30.2155644, 60.5484048 ], [ 30.2169534, 60.5466166 ], [ 30.2168917, 60.546606 ] ] } },
{ "type": "Feature", "id": "way/107590008", "properties": { "@id": "way/107590008", "@relations": [ { "role": "building", "rel": 12403728, "reltags": { "esr:user": "037503", "name": "Сосново", "public_transport": "stop_area", "railway": "facility", "train": "yes", "type": "public_transport", "uic_ref": "2004683" } } ] }, "geometry": { "type": "LineString", "coordinates": [ [ 30.2160776, 60.5487045 ], [ 30.2161823, 60.5487234 ], [ 30.2162969, 60.548744 ], [ 30.2162023, 60.5488712 ], [ 30.2161712, 60.5489129 ], [ 30.2161438, 60.5489496 ], [ 30.2160365, 60.5490938 ], [ 30.2158172, 60.5490543 ], [ 30.2160776, 60.5487045 ] ] } },
{ "type": "Feature", "id": "node/582620941", "properties": { "@id": "node/582620941", "bench": "yes", "bin": "yes", "bus": "yes", "highway": "bus_stop", "name": "Сосново, центр", "public_transport": "platform", "shelter": "yes", "tactile_paving": "no", "@relations": [ { "role": "platform", "rel": 19807180, "reltags": { "name": "Сосново, центр", "public_transport": "stop_area", "type": "public_transport" } } ] }, "geometry": { "type": "Point", "coordinates": [ 30.25416, 60.5577461 ] } },
{ "type": "Feature", "id": "node/582620942", "properties": { "@id": "node/582620942", "bench": "yes", "bin": "yes", "bus": "yes", "highway": "bus_stop", "name": "Сосново, центр", "public_transport": "platform", "shelter": "yes", "tactile_paving": "no", "@relations": [ { "role": "platform", "rel": 19807179, "reltags": { "name": "Сосново, центр", "public_transport": "stop_area", "type": "public_transport" } } ] }, "geometry": { "type": "Point", "coordinates": [ 30.2533662, 60.5568773 ] } },
{ "type": "Feature", "id": "node/583349818", "properties": { "@id": "node/583349818", "bench": "no", "bin": "no", "bus": "yes", "highway": "bus_stop", "name": "Развилка", "public_transport": "platform", "shelter": "no", "tactile_paving": "no", "@relations": [ { "role": "platform", "rel": 14712165, "reltags": { "name": "Развилка", "public_transport": "stop_area", "type": "public_transport" } } ] }, "geometry": { "type": "Point", "coordinates": [ 30.2280483, 60.5701525 ] } },
{ "type": "Feature", "id": "node/583349819", "properties": { "@id": "node/583349819", "bench": "yes", "bin": "yes", "bus": "yes", "highway": "bus_stop", "name": "Развилка", "public_transport": "platform", "shelter": "yes", "tactile_paving": "no", "@relations": [ { "role": "platform", "rel": 14712166, "reltags": { "name": "Развилка", "public_transport": "stop_area", "type": "public_transport" } } ] }, "geometry": { "type": "Point", "coordinates": [ 30.2282236, 60.5706912 ] } },
{ "type": "Feature", "id": "node/583349820", "properties": { "@id": "node/583349820", "bench": "yes", "bin": "yes", "bus": "yes", "highway": "bus_stop", "name": "Новостройка", "public_transport": "platform", "shelter": "yes", "tactile_paving": "no", "@relations": [ { "role": "platform", "rel": 14712167, "reltags": { "name": "Новостройка", "public_transport": "stop_area", "type": "public_transport" } } ] }, "geometry": { "type": "Point", "coordinates": [ 30.2283695, 60.5751726 ] } },
{ "type": "Feature", "id": "node/583349821", "properties": { "@id": "node/583349821", "bench": "yes", "bin": "yes", "bus": "yes", "highway": "bus_stop", "name": "Новостройка", "public_transport": "platform", "shelter": "yes", "tactile_paving": "no", "@relations": [ { "role": "platform", "rel": 14712168, "reltags": { "name": "Новостройка", "public_transport": "stop_area", "type": "public_transport" } } ] }, "geometry": { "type": "Point", "coordinates": [ 30.2282899, 60.575004 ] } },
{ "type": "Feature", "id": "node/583349829", "properties": { "@id": "node/583349829", "bench": "yes", "bin": "no", "bus": "yes", "highway": "bus_stop", "name": "Лесная улица", "public_transport": "platform", "shelter": "yes", "tactile_paving": "no", "@relations": [ { "role": "platform", "rel": 14712159, "reltags": { "name": "Лесная улица", "public_transport": "stop_area", "type": "public_transport" } } ] }, "geometry": { "type": "Point", "coordinates": [ 30.2552924, 60.5639594 ] } },
{ "type": "Feature", "id": "node/620818123", "properties": { "@id": "node/620818123", "bench": "yes", "bin": "yes", "bus": "yes", "highway": "bus_stop", "name": "Полевая улица", "public_transport": "platform", "shelter": "yes", "tactile_paving": "no", "@relations": [ { "role": "platform", "rel": 14712154, "reltags": { "name": "Полевая улица", "public_transport": "stop_area", "type": "public_transport" } } ] }, "geometry": { "type": "Point", "coordinates": [ 30.2317856, 60.5453999 ] } },
{ "type": "Feature", "id": "node/622045439", "properties": { "@id": "node/622045439", "bus": "yes", "name": "АТП", "public_transport": "stop_position", "@relations": [ { "role": "stop", "rel": 14714436, "reltags": { "name": "АТП", "public_transport": "stop_area", "type": "public_transport" } } ] }, "geometry": { "type": "Point", "coordinates": [ 30.2140862, 60.55537 ] } },
{ "type": "Feature", "id": "node/643567881", "properties": { "@id": "node/643567881", "bus": "yes", "name": "станция Сосново", "public_transport": "stop_position", "@relations": [ { "role": "stop", "rel": 19749156, "reltags": { "name": "станция Сосново", "public_transport": "stop_area", "type": "public_transport" } } ] }, "geometry": { "type": "Point", "coordinates": [ 30.2164972, 60.5493378 ] } },
{ "type": "Feature", "id": "node/643597551", "properties": { "@id": "node/643597551", "bench": "yes", "bin": "yes", "bus": "yes", "highway": "bus_stop", "name": "станция Сосново", "public_transport": "platform", "shelter": "yes", "@relations": [ { "role": "platform", "rel": 14711340, "reltags": { "name": "станция Сосново", "public_transport": "stop_area", "type": "public_transport" } } ] }, "geometry": { "type": "Point", "coordinates": [ 30.2160897, 60.5494959 ] } },
{ "type": "Feature", "id": "node/646451812", "properties": { "@id": "node/646451812", "bench": "yes", "bin": "yes", "bus": "yes", "highway": "bus_stop", "name": "станция Сосново", "public_transport": "platform", "shelter": "yes", "@relations": [ { "role": "platform", "rel": 14711342, "reltags": { "name": "станция Сосново", "public_transport": "stop_area", "type": "public_transport" } } ] }, "geometry": { "type": "Point", "coordinates": [ 30.216836, 60.5491167 ] } },
{ "type": "Feature", "id": "node/898998717", "properties": { "@id": "node/898998717", "esr:user": "037503", "name": "Сосново", "operator": "ОАО «РЖД»", "operator:branch": "Октябрьская железная дорога", "public_transport": "station", "railway": "station", "train": "yes", "uic_ref": "2004683", "wikidata": "Q4429650", "wikipedia": "ru:Сосново (станция)", "@relations": [ { "role": "", "rel": 12403728, "reltags": { "esr:user": "037503", "name": "Сосново", "public_transport": "stop_area", "railway": "facility", "train": "yes", "type": "public_transport", "uic_ref": "2004683" } } ] }, "geometry": { "type": "Point", "coordinates": [ 30.2163593, 60.5475317 ] } },
{ "type": "Feature", "id": "node/995861600", "properties": { "@id": "node/995861600", "bench": "yes", "bin": "yes", "bus": "yes", "highway": "bus_stop", "name": "Островки", "public_transport": "platform", "shelter": "yes", "tactile_paving": "no", "@relations": [ { "role": "platform", "rel": 14714430, "reltags": { "name": "Островки", "public_transport": "stop_area", "type": "public_transport" } } ] }, "geometry": { "type": "Point", "coordinates": [ 30.2183543, 60.5664759 ] } },
{ "type": "Feature", "id": "node/995861601", "properties": { "@id": "node/995861601", "bench": "no", "bin": "no", "bus": "yes", "highway": "bus_stop", "name": "Островки", "public_transport": "platform", "shelter": "no", "tactile_paving": "no", "@relations": [ { "role": "platform", "rel": 14714429, "reltags": { "name": "Островки", "public_transport": "stop_area", "type": "public_transport" } } ] }, "geometry": { "type": "Point", "coordinates": [ 30.2177577, 60.5668567 ] } },
{ "type": "Feature", "id": "node/1236305751", "properties": { "@id": "node/1236305751", "bench": "no", "bin": "no", "bus": "yes", "highway": "bus_stop", "name": "станция Сосново", "public_transport": "platform", "shelter": "no", "@relations": [ { "role": "platform", "rel": 14711341, "reltags": { "name": "станция Сосново", "public_transport": "stop_area", "type": "public_transport" } } ] }, "geometry": { "type": "Point", "coordinates": [ 30.2163208, 60.54892 ] } },
{ "type": "Feature", "id": "node/1407405770", "properties": { "@id": "node/1407405770", "bench": "yes", "bin": "yes", "bus": "yes", "highway": "bus_stop", "name": "ФОК", "network": "1", "public_transport": "platform", "shelter": "yes", "tactile_paving": "no", "@relations": [ { "role": "platform", "rel": 14712163, "reltags": { "name": "ФОК", "public_transport": "stop_area", "type": "public_transport" } } ] }, "geometry": { "type": "Point", "coordinates": [ 30.2387041, 60.5697741 ] } },
{ "type": "Feature", "id": "node/1407405772", "properties": { "@id": "node/1407405772", "bench": "yes", "bin": "yes", "bus": "yes", "highway": "bus_stop", "name": "ФОК", "public_transport": "platform", "shelter": "yes", "tactile_paving": "no", "@relations": [ { "role": "platform", "rel": 14712164, "reltags": { "name": "ФОК", "public_transport": "stop_area", "type": "public_transport" } } ] }, "geometry": { "type": "Point", "coordinates": [ 30.2400728, 60.5696193 ] } },
{ "type": "Feature", "id": "node/1410383183", "properties": { "@id": "node/1410383183", "bench": "no", "bin": "no", "bus": "yes", "highway": "bus_stop", "name": "Агропромхимия", "public_transport": "platform", "shelter": "no", "tactile_paving": "no", "@relations": [ { "role": "platform", "rel": 14714432, "reltags": { "name": "Агропромхимия", "public_transport": "stop_area", "type": "public_transport" } } ] }, "geometry": { "type": "Point", "coordinates": [ 30.2171339, 60.5618109 ] } },
{ "type": "Feature", "id": "node/1410383184", "properties": { "@id": "node/1410383184", "bench": "no", "bin": "no", "bus": "yes", "highway": "bus_stop", "name": "Агропромхимия", "public_transport": "platform", "shelter": "no", "tactile_paving": "no", "@relations": [ { "role": "platform", "rel": 14714433, "reltags": { "name": "Агропромхимия", "public_transport": "stop_area", "type": "public_transport" } } ] }, "geometry": { "type": "Point", "coordinates": [ 30.2170159, 60.5625926 ] } },
{ "type": "Feature", "id": "node/1410383185", "properties": { "@id": "node/1410383185", "bench": "no", "bin": "no", "bus": "yes", "highway": "bus_stop", "name": "Агропромтехника", "public_transport": "platform", "shelter": "no", "@relations": [ { "role": "platform", "rel": 14714435, "reltags": { "name": "Агропромтехника", "public_transport": "stop_area", "type": "public_transport" } } ] }, "geometry": { "type": "Point", "coordinates": [ 30.2163238, 60.5582369 ] } },
{ "type": "Feature", "id": "node/1410383186", "properties": { "@id": "node/1410383186", "bench": "yes", "bin": "yes", "bus": "yes", "highway": "bus_stop", "name": "Агропромтехника", "public_transport": "platform", "shelter": "yes", "@relations": [ { "role": "platform", "rel": 14714434, "reltags": { "name": "Агропромтехника", "public_transport": "stop_area", "type": "public_transport" } } ] }, "geometry": { "type": "Point", "coordinates": [ 30.2160824, 60.5584742 ] } },
{ "type": "Feature", "id": "node/1416096547", "properties": { "@id": "node/1416096547", "bus": "yes", "highway": "bus_stop", "name": "Комсомольская улица", "public_transport": "platform", "@relations": [ { "role": "platform", "rel": 14712161, "reltags": { "name": "Комсомольская улица", "public_transport": "stop_area", "type": "public_transport" } } ] }, "geometry": { "type": "Point", "coordinates": [ 30.2499623, 60.56833 ] } },
{ "type": "Feature", "id": "node/1416096625", "properties": { "@id": "node/1416096625", "bus": "yes", "highway": "bus_stop", "name": "Комсомольская улица", "public_transport": "platform", "@relations": [ { "role": "platform", "rel": 14712162, "reltags": { "name": "Комсомольская улица", "public_transport": "stop_area", "type": "public_transport" } } ] }, "geometry": { "type": "Point", "coordinates": [ 30.2514944, 60.5681244 ] } },
{ "type": "Feature", "id": "node/1416117634", "properties": { "@id": "node/1416117634", "bench": "yes", "bin": "yes", "bus": "yes", "highway": "bus_stop", "name": "Лесная улица", "public_transport": "platform", "shelter": "yes", "tactile_paving": "no", "@relations": [ { "role": "platform", "rel": 14712160, "reltags": { "name": "Лесная улица", "public_transport": "stop_area", "type": "public_transport" } } ] }, "geometry": { "type": "Point", "coordinates": [ 30.2553634, 60.5649244 ] } },
{ "type": "Feature", "id": "node/2234651552", "properties": { "@id": "node/2234651552", "name": "Сосново", "public_transport": "stop_position", "railway": "stop", "train": "yes", "@relations": [ { "role": "stop", "rel": 12403728, "reltags": { "esr:user": "037503", "name": "Сосново", "public_transport": "stop_area", "railway": "facility", "train": "yes", "type": "public_transport", "uic_ref": "2004683" } } ] }, "geometry": { "type": "Point", "coordinates": [ 30.2161019, 60.5474835 ] } },
{ "type": "Feature", "id": "node/5499014418", "properties": { "@id": "node/5499014418", "bus": "yes", "highway": "bus_stop", "name": "Сосново, Советская улица", "public_transport": "platform", "@relations": [ { "role": "platform", "rel": 14715335, "reltags": { "name": "Сосново, Советская улица", "public_transport": "stop_area", "type": "public_transport" } } ] }, "geometry": { "type": "Point", "coordinates": [ 30.2669617, 60.5615191 ] } },
{ "type": "Feature", "id": "node/8211869254", "properties": { "@id": "node/8211869254", "name": "Сосново", "public_transport": "stop_position", "railway": "stop", "train": "yes", "@relations": [ { "role": "stop", "rel": 12403728, "reltags": { "esr:user": "037503", "name": "Сосново", "public_transport": "stop_area", "railway": "facility", "train": "yes", "type": "public_transport", "uic_ref": "2004683" } } ] }, "geometry": { "type": "Point", "coordinates": [ 30.2166028, 60.547569 ] } },
{ "type": "Feature", "id": "node/8490089299", "properties": { "@id": "node/8490089299", "bus": "yes", "name": "Ленинградская улица", "public_transport": "stop_position", "@relations": [ { "role": "stop", "rel": 14712155, "reltags": { "name": "Ленинградская улица", "public_transport": "stop_area", "type": "public_transport" } } ] }, "geometry": { "type": "Point", "coordinates": [ 30.2387881, 60.5489433 ] } },
{ "type": "Feature", "id": "node/8490089300", "properties": { "@id": "node/8490089300", "bus": "yes", "name": "Молокозавод", "public_transport": "stop_position", "@relations": [ { "role": "stop", "rel": 14712158, "reltags": { "name": "Молокозавод", "public_transport": "stop_area", "type": "public_transport" } } ] }, "geometry": { "type": "Point", "coordinates": [ 30.2478705, 60.5544705 ] } },
{ "type": "Feature", "id": "node/9887978958", "properties": { "@id": "node/9887978958", "bus": "yes", "name": "станция Сосново", "public_transport": "stop_position", "@relations": [ { "role": "stop", "rel": 14711341, "reltags": { "name": "станция Сосново", "public_transport": "stop_area", "type": "public_transport" } } ] }, "geometry": { "type": "Point", "coordinates": [ 30.2164191, 60.5489358 ] } },
{ "type": "Feature", "id": "node/10114076933", "properties": { "@id": "node/10114076933", "bus": "yes", "name": "станция Сосново", "public_transport": "stop_position", "@relations": [ { "role": "stop", "rel": 14711340, "reltags": { "name": "станция Сосново", "public_transport": "stop_area", "type": "public_transport" } } ] }, "geometry": { "type": "Point", "coordinates": [ 30.2163456, 60.5495195 ] } },
{ "type": "Feature", "id": "node/10114076937", "properties": { "@id": "node/10114076937", "bus": "yes", "name": "станция Сосново", "public_transport": "stop_position", "@relations": [ { "role": "stop", "rel": 14711342, "reltags": { "name": "станция Сосново", "public_transport": "stop_area", "type": "public_transport" } } ] }, "geometry": { "type": "Point", "coordinates": [ 30.2167051, 60.5490928 ] } },
{ "type": "Feature", "id": "node/10114076939", "properties": { "@id": "node/10114076939", "bus": "yes", "name": "Железнодорожная улица", "public_transport": "stop_position", "@relations": [ { "role": "stop", "rel": 14711344, "reltags": { "name": "Железнодорожная улица", "public_transport": "stop_area", "type": "public_transport" } } ] }, "geometry": { "type": "Point", "coordinates": [ 30.2103264, 60.5429643 ] } },
{ "type": "Feature", "id": "node/10114076940", "properties": { "@id": "node/10114076940", "bus": "yes", "name": "Железнодорожная улица", "public_transport": "stop_position", "@relations": [ { "role": "stop", "rel": 14711343, "reltags": { "name": "Железнодорожная улица", "public_transport": "stop_area", "type": "public_transport" } } ] }, "geometry": { "type": "Point", "coordinates": [ 30.2096473, 60.54301 ] } },
{ "type": "Feature", "id": "node/10114076945", "properties": { "@id": "node/10114076945", "bench": "no", "bin": "no", "bus": "yes", "highway": "bus_stop", "name": "Железнодорожная улица", "public_transport": "platform", "shelter": "no", "tactile_paving": "no", "@relations": [ { "role": "platform", "rel": 14711344, "reltags": { "name": "Железнодорожная улица", "public_transport": "stop_area", "type": "public_transport" } } ] }, "geometry": { "type": "Point", "coordinates": [ 30.2103022, 60.5428928 ] } },
{ "type": "Feature", "id": "node/10114076946", "properties": { "@id": "node/10114076946", "bench": "no", "bin": "no", "bus": "yes", "highway": "bus_stop", "name": "Железнодорожная улица", "public_transport": "platform", "shelter": "no", "tactile_paving": "no", "@relations": [ { "role": "platform", "rel": 14711343, "reltags": { "name": "Железнодорожная улица", "public_transport": "stop_area", "type": "public_transport" } } ] }, "geometry": { "type": "Point", "coordinates": [ 30.2096692, 60.5430867 ] } },
{ "type": "Feature", "id": "node/10114568975", "properties": { "@id": "node/10114568975", "bus": "yes", "name": "Полевая улица", "public_transport": "stop_position", "@relations": [ { "role": "stop", "rel": 14712153, "reltags": { "name": "Полевая улица", "public_transport": "stop_area", "type": "public_transport" } } ] }, "geometry": { "type": "Point", "coordinates": [ 30.2335867, 60.5457457 ] } },
{ "type": "Feature", "id": "node/10114568976", "properties": { "@id": "node/10114568976", "bus": "yes", "name": "Полевая улица", "public_transport": "stop_position", "@relations": [ { "role": "stop", "rel": 14712154, "reltags": { "name": "Полевая улица", "public_transport": "stop_area", "type": "public_transport" } } ] }, "geometry": { "type": "Point", "coordinates": [ 30.23184, 60.545345 ] } },
{ "type": "Feature", "id": "node/10114568977", "properties": { "@id": "node/10114568977", "bench": "yes", "bin": "yes", "bus": "yes", "highway": "bus_stop", "name": "Полевая улица", "public_transport": "platform", "shelter": "yes", "tactile_paving": "no", "@relations": [ { "role": "platform", "rel": 14712153, "reltags": { "name": "Полевая улица", "public_transport": "stop_area", "type": "public_transport" } } ] }, "geometry": { "type": "Point", "coordinates": [ 30.2336347, 60.5456983 ] } },
{ "type": "Feature", "id": "node/10114568978", "properties": { "@id": "node/10114568978", "bench": "no", "bin": "no", "bus": "yes", "highway": "bus_stop", "name": "Ленинградская улица", "public_transport": "platform", "shelter": "no", "tactile_paving": "no", "@relations": [ { "role": "platform", "rel": 14712156, "reltags": { "name": "Ленинградская улица", "public_transport": "stop_area", "type": "public_transport" } } ] }, "geometry": { "type": "Point", "coordinates": [ 30.2395517, 60.5494003 ] } },
{ "type": "Feature", "id": "node/10114568979", "properties": { "@id": "node/10114568979", "bench": "yes", "bin": "yes", "bus": "yes", "highway": "bus_stop", "name": "Ленинградская улица", "public_transport": "platform", "shelter": "yes", "tactile_paving": "no", "@relations": [ { "role": "platform", "rel": 14712155, "reltags": { "name": "Ленинградская улица", "public_transport": "stop_area", "type": "public_transport" } } ] }, "geometry": { "type": "Point", "coordinates": [ 30.2388811, 60.5489031 ] } },
{ "type": "Feature", "id": "node/10114568980", "properties": { "@id": "node/10114568980", "bus": "yes", "name": "Ленинградская улица", "public_transport": "stop_position", "@relations": [ { "role": "stop", "rel": 14712156, "reltags": { "name": "Ленинградская улица", "public_transport": "stop_area", "type": "public_transport" } } ] }, "geometry": { "type": "Point", "coordinates": [ 30.2396481, 60.5493554 ] } },
{ "type": "Feature", "id": "node/10114568982", "properties": { "@id": "node/10114568982", "bench": "yes", "bin": "yes", "bus": "yes", "highway": "bus_stop", "name": "Молокозавод", "public_transport": "platform", "shelter": "yes", "tactile_paving": "no", "@relations": [ { "role": "platform", "rel": 14712157, "reltags": { "name": "Молокозавод", "public_transport": "stop_area", "type": "public_transport" } } ] }, "geometry": { "type": "Point", "coordinates": [ 30.2473381, 60.5540499 ] } },
{ "type": "Feature", "id": "node/10114568983", "properties": { "@id": "node/10114568983", "bench": "yes", "bin": "yes", "bus": "yes", "highway": "bus_stop", "name": "Молокозавод", "public_transport": "platform", "shelter": "yes", "tactile_paving": "no", "@relations": [ { "role": "platform", "rel": 14712158, "reltags": { "name": "Молокозавод", "public_transport": "stop_area", "type": "public_transport" } } ] }, "geometry": { "type": "Point", "coordinates": [ 30.2480248, 60.5544495 ] } },
{ "type": "Feature", "id": "node/10114568984", "properties": { "@id": "node/10114568984", "bus": "yes", "name": "Молокозавод", "public_transport": "stop_position", "@relations": [ { "role": "stop", "rel": 14712157, "reltags": { "name": "Молокозавод", "public_transport": "stop_area", "type": "public_transport" } } ] }, "geometry": { "type": "Point", "coordinates": [ 30.2474282, 60.554008 ] } },
{ "type": "Feature", "id": "node/10114568985", "properties": { "@id": "node/10114568985", "bus": "yes", "name": "Сосново, центр", "public_transport": "stop_position", "@relations": [ { "role": "stop", "rel": 19807179, "reltags": { "name": "Сосново, центр", "public_transport": "stop_area", "type": "public_transport" } } ] }, "geometry": { "type": "Point", "coordinates": [ 30.2532456, 60.5569105 ] } },
{ "type": "Feature", "id": "node/10114568987", "properties": { "@id": "node/10114568987", "bus": "yes", "name": "Сосново, центр", "public_transport": "stop_position", "@relations": [ { "role": "stop", "rel": 19807180, "reltags": { "name": "Сосново, центр", "public_transport": "stop_area", "type": "public_transport" } } ] }, "geometry": { "type": "Point", "coordinates": [ 30.2542653, 60.5576972 ] } },
{ "type": "Feature", "id": "node/10114568991", "properties": { "@id": "node/10114568991", "bus": "yes", "name": "Лесная улица", "public_transport": "stop_position", "@relations": [ { "role": "stop", "rel": 14712159, "reltags": { "name": "Лесная улица", "public_transport": "stop_area", "type": "public_transport" } } ] }, "geometry": { "type": "Point", "coordinates": [ 30.2551059, 60.5639697 ] } },
{ "type": "Feature", "id": "node/10114568992", "properties": { "@id": "node/10114568992", "bus": "yes", "name": "Лесная улица", "public_transport": "stop_position", "@relations": [ { "role": "stop", "rel": 14712160, "reltags": { "name": "Лесная улица", "public_transport": "stop_area", "type": "public_transport" } } ] }, "geometry": { "type": "Point", "coordinates": [ 30.2555289, 60.56491 ] } },
{ "type": "Feature", "id": "node/10114569002", "properties": { "@id": "node/10114569002", "bus": "yes", "name": "Комсомольская улица", "public_transport": "stop_position", "@relations": [ { "role": "stop", "rel": 14712162, "reltags": { "name": "Комсомольская улица", "public_transport": "stop_area", "type": "public_transport" } } ] }, "geometry": { "type": "Point", "coordinates": [ 30.2515521, 60.5682064 ] } },
{ "type": "Feature", "id": "node/10114569003", "properties": { "@id": "node/10114569003", "bus": "yes", "name": "Комсомольская улица", "public_transport": "stop_position", "@relations": [ { "role": "stop", "rel": 14712161, "reltags": { "name": "Комсомольская улица", "public_transport": "stop_area", "type": "public_transport" } } ] }, "geometry": { "type": "Point", "coordinates": [ 30.2499829, 60.5682614 ] } },
{ "type": "Feature", "id": "node/10114569009", "properties": { "@id": "node/10114569009", "bus": "yes", "name": "ФОК", "public_transport": "stop_position", "@relations": [ { "role": "stop", "rel": 14712164, "reltags": { "name": "ФОК", "public_transport": "stop_area", "type": "public_transport" } } ] }, "geometry": { "type": "Point", "coordinates": [ 30.2400761, 60.5696839 ] } },
{ "type": "Feature", "id": "node/10114569010", "properties": { "@id": "node/10114569010", "bus": "yes", "name": "ФОК", "public_transport": "stop_position", "@relations": [ { "role": "stop", "rel": 14712163, "reltags": { "name": "ФОК", "public_transport": "stop_area", "type": "public_transport" } } ] }, "geometry": { "type": "Point", "coordinates": [ 30.2386982, 60.5697113 ] } },
{ "type": "Feature", "id": "node/10114569011", "properties": { "@id": "node/10114569011", "bus": "yes", "name": "Развилка", "public_transport": "stop_position", "@relations": [ { "role": "stop", "rel": 14712166, "reltags": { "name": "Развилка", "public_transport": "stop_area", "type": "public_transport" } } ] }, "geometry": { "type": "Point", "coordinates": [ 30.228378, 60.5706577 ] } },
{ "type": "Feature", "id": "node/10114569012", "properties": { "@id": "node/10114569012", "bus": "yes", "name": "Развилка", "public_transport": "stop_position", "@relations": [ { "role": "stop", "rel": 14712165, "reltags": { "name": "Развилка", "public_transport": "stop_area", "type": "public_transport" } } ] }, "geometry": { "type": "Point", "coordinates": [ 30.2279422, 60.5701722 ] } },
{ "type": "Feature", "id": "node/10114569015", "properties": { "@id": "node/10114569015", "bus": "yes", "name": "Новостройка", "public_transport": "stop_position", "@relations": [ { "role": "stop", "rel": 14712168, "reltags": { "name": "Новостройка", "public_transport": "stop_area", "type": "public_transport" } } ] }, "geometry": { "type": "Point", "coordinates": [ 30.2284077, 60.5750406 ] } },
{ "type": "Feature", "id": "node/10114569016", "properties": { "@id": "node/10114569016", "bus": "yes", "name": "Новостройка", "public_transport": "stop_position", "@relations": [ { "role": "stop", "rel": 14712167, "reltags": { "name": "Новостройка", "public_transport": "stop_area", "type": "public_transport" } } ] }, "geometry": { "type": "Point", "coordinates": [ 30.2282519, 60.5751301 ] } },
{ "type": "Feature", "id": "node/10116235191", "properties": { "@id": "node/10116235191", "bus": "yes", "name": "Островки", "public_transport": "stop_position", "@relations": [ { "role": "stop", "rel": 14714430, "reltags": { "name": "Островки", "public_transport": "stop_area", "type": "public_transport" } } ] }, "geometry": { "type": "Point", "coordinates": [ 30.2184331, 60.5665578 ] } },
{ "type": "Feature", "id": "node/10116235192", "properties": { "@id": "node/10116235192", "bus": "yes", "name": "Островки", "public_transport": "stop_position", "@relations": [ { "role": "stop", "rel": 14714429, "reltags": { "name": "Островки", "public_transport": "stop_area", "type": "public_transport" } } ] }, "geometry": { "type": "Point", "coordinates": [ 30.2176507, 60.5667804 ] } },
{ "type": "Feature", "id": "node/10116235200", "properties": { "@id": "node/10116235200", "bus": "yes", "name": "Агропромхимия", "public_transport": "stop_position", "@relations": [ { "role": "stop", "rel": 14714433, "reltags": { "name": "Агропромхимия", "public_transport": "stop_area", "type": "public_transport" } } ] }, "geometry": { "type": "Point", "coordinates": [ 30.2171399, 60.5625823 ] } },
{ "type": "Feature", "id": "node/10116235201", "properties": { "@id": "node/10116235201", "bus": "yes", "name": "Агропромхимия", "public_transport": "stop_position", "@relations": [ { "role": "stop", "rel": 14714432, "reltags": { "name": "Агропромхимия", "public_transport": "stop_area", "type": "public_transport" } } ] }, "geometry": { "type": "Point", "coordinates": [ 30.2169706, 60.5618142 ] } },
{ "type": "Feature", "id": "node/10116235203", "properties": { "@id": "node/10116235203", "bus": "yes", "name": "Агропромтехника", "public_transport": "stop_position", "@relations": [ { "role": "stop", "rel": 14714435, "reltags": { "name": "Агропромтехника", "public_transport": "stop_area", "type": "public_transport" } } ] }, "geometry": { "type": "Point", "coordinates": [ 30.2161845, 60.5582418 ] } },
{ "type": "Feature", "id": "node/10116235204", "properties": { "@id": "node/10116235204", "bus": "yes", "name": "Агропромтехника", "public_transport": "stop_position", "@relations": [ { "role": "stop", "rel": 14714434, "reltags": { "name": "Агропромтехника", "public_transport": "stop_area", "type": "public_transport" } } ] }, "geometry": { "type": "Point", "coordinates": [ 30.2162324, 60.5584651 ] } },
{ "type": "Feature", "id": "node/10116235208", "properties": { "@id": "node/10116235208", "bus": "yes", "name": "АТП", "public_transport": "stop_position", "@relations": [ { "role": "stop", "rel": 14714437, "reltags": { "name": "АТП", "public_transport": "stop_area", "type": "public_transport" } } ] }, "geometry": { "type": "Point", "coordinates": [ 30.2146783, 60.5555744 ] } },
{ "type": "Feature", "id": "node/10116235209", "properties": { "@id": "node/10116235209", "bench": "no", "bin": "no", "bus": "yes", "highway": "bus_stop", "name": "АТП", "public_transport": "platform", "shelter": "no", "tactile_paving": "no", "@relations": [ { "role": "platform", "rel": 14714437, "reltags": { "name": "АТП", "public_transport": "stop_area", "type": "public_transport" } } ] }, "geometry": { "type": "Point", "coordinates": [ 30.2147524, 60.5555246 ] } },
{ "type": "Feature", "id": "node/10116235210", "properties": { "@id": "node/10116235210", "bench": "yes", "bin": "yes", "bus": "yes", "highway": "bus_stop", "name": "АТП", "public_transport": "platform", "shelter": "yes", "tactile_paving": "no", "@relations": [ { "role": "platform", "rel": 14714436, "reltags": { "name": "АТП", "public_transport": "stop_area", "type": "public_transport" } } ] }, "geometry": { "type": "Point", "coordinates": [ 30.2138588, 60.5555056 ] } },
{ "type": "Feature", "id": "node/10116798952", "properties": { "@id": "node/10116798952", "bus": "yes", "highway": "bus_stop", "name": "Сосново, Советская улица", "public_transport": "platform", "@relations": [ { "role": "platform", "rel": 14715334, "reltags": { "name": "Сосново, Советская улица", "public_transport": "stop_area", "type": "public_transport" } } ] }, "geometry": { "type": "Point", "coordinates": [ 30.2652821, 60.5615004 ] } },
{ "type": "Feature", "id": "node/10116798953", "properties": { "@id": "node/10116798953", "bus": "yes", "name": "Сосново, Советская улица", "public_transport": "stop_position", "@relations": [ { "role": "stop", "rel": 14715335, "reltags": { "name": "Сосново, Советская улица", "public_transport": "stop_area", "type": "public_transport" } } ] }, "geometry": { "type": "Point", "coordinates": [ 30.2669299, 60.5615706 ] } },
{ "type": "Feature", "id": "node/10116798954", "properties": { "@id": "node/10116798954", "bus": "yes", "name": "Сосново, Советская улица", "public_transport": "stop_position", "@relations": [ { "role": "stop", "rel": 14715334, "reltags": { "name": "Сосново, Советская улица", "public_transport": "stop_area", "type": "public_transport" } } ] }, "geometry": { "type": "Point", "coordinates": [ 30.2652794, 60.5614212 ] } },
{ "type": "Feature", "id": "node/11773882003", "properties": { "@id": "node/11773882003", "bench": "no", "bin": "yes", "bus": "yes", "highway": "bus_stop", "name": "станция Сосново", "public_transport": "platform", "shelter": "no", "tactile_paving": "no", "@relations": [ { "role": "platform", "rel": 19749156, "reltags": { "name": "станция Сосново", "public_transport": "stop_area", "type": "public_transport" } } ] }, "geometry": { "type": "Point", "coordinates": [ 30.2163207, 60.5493022 ] } },
{ "type": "Feature", "properties": { "id": "node/252484406", "@id": "node/252484406", "area": null, "bench": null, "bin": null, "bus": "yes", "esr:user": null, "highway": "bus_stop", "name": "Иваново", "network": null, "operator": null, "operator:branch": null, "public_transport": "platform", "railway": null, "ref": null, "shelter": null, "surface": null, "tactile_paving": null, "train": null, "uic_ref": null, "wikidata": null, "wikipedia": null, "@relations": "[\n    {\n        \"rel\": 14711775,\n        \"reltags\": {\n            \"name\": \"Иваново\",\n            \"public_transport\": \"stop_area\",\n            \"type\": \"public_transport\"\n        },\n        \"role\": \"platform\"\n    }\n]\n" }, "geometry": { "type": "Point", "coordinates": [ 30.1857626, 60.5319667 ] } },
{ "type": "Feature", "properties": { "id": "node/257414151", "@id": "node/257414151", "area": null, "bench": "no", "bin": null, "bus": "yes", "esr:user": null, "highway": "bus_stop", "name": "Иваново", "network": null, "operator": null, "operator:branch": null, "public_transport": "platform", "railway": null, "ref": null, "shelter": "no", "surface": null, "tactile_paving": null, "train": null, "uic_ref": null, "wikidata": null, "wikipedia": null, "@relations": "[\n    {\n        \"rel\": 14711777,\n        \"reltags\": {\n            \"name\": \"Иваново\",\n            \"public_transport\": \"stop_area\",\n            \"type\": \"public_transport\"\n        },\n        \"role\": \"platform\"\n    }\n]\n" }, "geometry": { "type": "Point", "coordinates": [ 30.1901049, 60.5250249 ] } },
{ "type": "Feature", "properties": { "id": "node/257414152", "@id": "node/257414152", "area": null, "bench": null, "bin": null, "bus": "yes", "esr:user": null, "highway": "bus_stop", "name": "Иваново", "network": null, "operator": null, "operator:branch": null, "public_transport": "platform", "railway": null, "ref": null, "shelter": null, "surface": null, "tactile_paving": null, "train": null, "uic_ref": null, "wikidata": null, "wikipedia": null, "@relations": "[\n    {\n        \"rel\": 14711774,\n        \"reltags\": {\n            \"name\": \"Иваново\",\n            \"public_transport\": \"stop_area\",\n            \"type\": \"public_transport\"\n        },\n        \"role\": \"platform\"\n    }\n]\n" }, "geometry": { "type": "Point", "coordinates": [ 30.1858109, 60.5315722 ] } },
{ "type": "Feature", "properties": { "id": "node/530790887", "@id": "node/530790887", "area": null, "bench": null, "bin": null, "bus": null, "esr:user": "037518", "highway": null, "name": "Никитино (69 км)", "network": null, "operator": "ОАО «РЖД»", "operator:branch": "Октябрьская железная дорога", "public_transport": "station", "railway": "halt", "ref": null, "shelter": null, "surface": null, "tactile_paving": null, "train": "yes", "uic_ref": "2005355", "wikidata": "Q4032148", "wikipedia": "ru:Никитино (остановочный пункт)", "@relations": "[\n    {\n        \"rel\": 12403723,\n        \"reltags\": {\n            \"esr:user\": \"037518\",\n            \"name\": \"Никитино\",\n            \"public_transport\": \"stop_area\",\n            \"railway\": \"facility\",\n            \"train\": \"yes\",\n            \"type\": \"public_transport\",\n            \"uic_ref\": \"2005355\"\n        },\n        \"role\": \"\"\n    }\n]\n" }, "geometry": { "type": "Point", "coordinates": [ 30.2394794, 60.5066254 ] } },
{ "type": "Feature", "properties": { "id": "node/705219230", "@id": "node/705219230", "area": null, "bench": null, "bin": null, "bus": null, "esr:user": "037522", "highway": null, "name": "67 км", "network": null, "operator": "ОАО «РЖД»", "operator:branch": "Октябрьская железная дорога", "public_transport": "station", "railway": "halt", "ref": null, "shelter": null, "surface": null, "tactile_paving": null, "train": "yes", "uic_ref": "2005365", "wikidata": "Q4032115", "wikipedia": "ru:67-й километр (платформа, Ленинградская область)", "@relations": "[\n    {\n        \"rel\": 12403720,\n        \"reltags\": {\n            \"esr:user\": \"037522\",\n            \"name\": \"67 км\",\n            \"public_transport\": \"stop_area\",\n            \"railway\": \"facility\",\n            \"train\": \"yes\",\n            \"type\": \"public_transport\",\n            \"uic_ref\": \"2005365\"\n        },\n        \"role\": \"\"\n    }\n]\n" }, "geometry": { "type": "Point", "coordinates": [ 30.2520721, 60.4858677 ] } },
{ "type": "Feature", "properties": { "id": "node/2234651492", "@id": "node/2234651492", "area": null, "bench": null, "bin": null, "bus": null, "esr:user": null, "highway": null, "name": "Никитино", "network": null, "operator": null, "operator:branch": null, "public_transport": "stop_position", "railway": "stop", "ref": null, "shelter": null, "surface": null, "tactile_paving": null, "train": "yes", "uic_ref": null, "wikidata": null, "wikipedia": null, "@relations": "[\n    {\n        \"rel\": 12403723,\n        \"reltags\": {\n            \"esr:user\": \"037518\",\n            \"name\": \"Никитино\",\n            \"public_transport\": \"stop_area\",\n            \"railway\": \"facility\",\n            \"train\": \"yes\",\n            \"type\": \"public_transport\",\n            \"uic_ref\": \"2005355\"\n        },\n        \"role\": \"stop\"\n    }\n]\n" }, "geometry": { "type": "Point", "coordinates": [ 30.2384765, 60.5076111 ] } },
{ "type": "Feature", "properties": { "id": "node/2885008913", "@id": "node/2885008913", "area": null, "bench": null, "bin": null, "bus": "yes", "esr:user": null, "highway": "bus_stop", "name": "Игора", "network": null, "operator": null, "operator:branch": null, "public_transport": "platform", "railway": null, "ref": null, "shelter": "no", "surface": null, "tactile_paving": null, "train": null, "uic_ref": null, "wikidata": null, "wikipedia": null, "@relations": "[\n    {\n        \"rel\": 14711772,\n        \"reltags\": {\n            \"name\": \"Игора\",\n            \"public_transport\": \"stop_area\",\n            \"type\": \"public_transport\"\n        },\n        \"role\": \"platform\"\n    }\n]\n" }, "geometry": { "type": "Point", "coordinates": [ 30.2032784, 60.5124428 ] } },
{ "type": "Feature", "properties": { "id": "node/4967797981", "@id": "node/4967797981", "area": null, "bench": "yes", "bin": null, "bus": null, "esr:user": null, "highway": "bus_stop", "name": "поворот на Новожилово", "network": null, "operator": null, "operator:branch": null, "public_transport": "platform", "railway": null, "ref": null, "shelter": "yes", "surface": null, "tactile_paving": null, "train": null, "uic_ref": null, "wikidata": null, "wikipedia": null, "@relations": "[\n    {\n        \"rel\": 14711771,\n        \"reltags\": {\n            \"name\": \"поворот на Новожилово\",\n            \"public_transport\": \"stop_area\",\n            \"type\": \"public_transport\"\n        },\n        \"role\": \"platform\"\n    }\n]\n" }, "geometry": { "type": "Point", "coordinates": [ 30.2137871, 60.5016022 ] } },
{ "type": "Feature", "properties": { "id": "node/4967797982", "@id": "node/4967797982", "area": null, "bench": "yes", "bin": "yes", "bus": null, "esr:user": null, "highway": "bus_stop", "name": "поворот на Новожилово", "network": null, "operator": null, "operator:branch": null, "public_transport": "platform", "railway": null, "ref": null, "shelter": "no", "surface": null, "tactile_paving": null, "train": null, "uic_ref": null, "wikidata": null, "wikipedia": null, "@relations": "[\n    {\n        \"rel\": 14711770,\n        \"reltags\": {\n            \"name\": \"поворот на Новожилово\",\n            \"public_transport\": \"stop_area\",\n            \"type\": \"public_transport\"\n        },\n        \"role\": \"platform\"\n    }\n]\n" }, "geometry": { "type": "Point", "coordinates": [ 30.2130675, 60.5030189 ] } },
{ "type": "Feature", "properties": { "id": "node/8211869260", "@id": "node/8211869260", "area": null, "bench": null, "bin": null, "bus": null, "esr:user": null, "highway": null, "name": "Никитино", "network": null, "operator": null, "operator:branch": null, "public_transport": "stop_position", "railway": "stop", "ref": null, "shelter": null, "surface": null, "tactile_paving": null, "train": "yes", "uic_ref": null, "wikidata": null, "wikipedia": null, "@relations": "[\n    {\n        \"rel\": 12403723,\n        \"reltags\": {\n            \"esr:user\": \"037518\",\n            \"name\": \"Никитино\",\n            \"public_transport\": \"stop_area\",\n            \"railway\": \"facility\",\n            \"train\": \"yes\",\n            \"type\": \"public_transport\",\n            \"uic_ref\": \"2005355\"\n        },\n        \"role\": \"stop\"\n    }\n]\n" }, "geometry": { "type": "Point", "coordinates": [ 30.2403412, 60.5057722 ] } },
{ "type": "Feature", "properties": { "id": "node/8211869261", "@id": "node/8211869261", "area": null, "bench": null, "bin": null, "bus": null, "esr:user": null, "highway": null, "name": "67 км", "network": null, "operator": null, "operator:branch": null, "public_transport": "stop_position", "railway": "stop", "ref": null, "shelter": null, "surface": null, "tactile_paving": null, "train": "yes", "uic_ref": null, "wikidata": null, "wikipedia": null, "@relations": "[\n    {\n        \"rel\": 12403720,\n        \"reltags\": {\n            \"esr:user\": \"037522\",\n            \"name\": \"67 км\",\n            \"public_transport\": \"stop_area\",\n            \"railway\": \"facility\",\n            \"train\": \"yes\",\n            \"type\": \"public_transport\",\n            \"uic_ref\": \"2005365\"\n        },\n        \"role\": \"stop\"\n    }\n]\n" }, "geometry": { "type": "Point", "coordinates": [ 30.2516391, 60.4868703 ] } },
{ "type": "Feature", "properties": { "id": "node/8211869262", "@id": "node/8211869262", "area": null, "bench": null, "bin": null, "bus": null, "esr:user": null, "highway": null, "name": "67 км", "network": null, "operator": null, "operator:branch": null, "public_transport": "stop_position", "railway": "stop", "ref": null, "shelter": null, "surface": null, "tactile_paving": null, "train": "yes", "uic_ref": null, "wikidata": null, "wikipedia": null, "@relations": "[\n    {\n        \"rel\": 12403720,\n        \"reltags\": {\n            \"esr:user\": \"037522\",\n            \"name\": \"67 км\",\n            \"public_transport\": \"stop_area\",\n            \"railway\": \"facility\",\n            \"train\": \"yes\",\n            \"type\": \"public_transport\",\n            \"uic_ref\": \"2005365\"\n        },\n        \"role\": \"stop\"\n    }\n]\n" }, "geometry": { "type": "Point", "coordinates": [ 30.252524, 60.4849083 ] } },
{ "type": "Feature", "properties": { "id": "node/9061967043", "@id": "node/9061967043", "area": null, "bench": null, "bin": null, "bus": "yes", "esr:user": null, "highway": "bus_stop", "name": "Игора", "network": null, "operator": null, "operator:branch": null, "public_transport": "platform", "railway": null, "ref": null, "shelter": null, "surface": null, "tactile_paving": null, "train": null, "uic_ref": null, "wikidata": null, "wikipedia": null, "@relations": "[\n    {\n        \"rel\": 14711773,\n        \"reltags\": {\n            \"name\": \"Игора\",\n            \"public_transport\": \"stop_area\",\n            \"type\": \"public_transport\"\n        },\n        \"role\": \"platform\"\n    }\n]\n" }, "geometry": { "type": "Point", "coordinates": [ 30.2039051, 60.512482 ] } },
{ "type": "Feature", "properties": { "id": "node/10114289322", "@id": "node/10114289322", "area": null, "bench": null, "bin": null, "bus": "yes", "esr:user": null, "highway": null, "name": "поворот на Новожилово", "network": null, "operator": null, "operator:branch": null, "public_transport": "stop_position", "railway": null, "ref": null, "shelter": null, "surface": null, "tactile_paving": null, "train": null, "uic_ref": null, "wikidata": null, "wikipedia": null, "@relations": "[\n    {\n        \"rel\": 14711770,\n        \"reltags\": {\n            \"name\": \"поворот на Новожилово\",\n            \"public_transport\": \"stop_area\",\n            \"type\": \"public_transport\"\n        },\n        \"role\": \"stop\"\n    }\n]\n" }, "geometry": { "type": "Point", "coordinates": [ 30.2129055, 60.5029669 ] } },
{ "type": "Feature", "properties": { "id": "node/10114289323", "@id": "node/10114289323", "area": null, "bench": null, "bin": null, "bus": "yes", "esr:user": null, "highway": null, "name": "поворот на Новожилово", "network": null, "operator": null, "operator:branch": null, "public_transport": "stop_position", "railway": null, "ref": null, "shelter": null, "surface": null, "tactile_paving": null, "train": null, "uic_ref": null, "wikidata": null, "wikipedia": null, "@relations": "[\n    {\n        \"rel\": 14711771,\n        \"reltags\": {\n            \"name\": \"поворот на Новожилово\",\n            \"public_transport\": \"stop_area\",\n            \"type\": \"public_transport\"\n        },\n        \"role\": \"stop\"\n    }\n]\n" }, "geometry": { "type": "Point", "coordinates": [ 30.2141939, 60.5016775 ] } },
{ "type": "Feature", "properties": { "id": "node/10114289324", "@id": "node/10114289324", "area": null, "bench": null, "bin": null, "bus": "yes", "esr:user": null, "highway": null, "name": "Игора", "network": null, "operator": null, "operator:branch": null, "public_transport": "stop_position", "railway": null, "ref": null, "shelter": null, "surface": null, "tactile_paving": null, "train": null, "uic_ref": null, "wikidata": null, "wikipedia": null, "@relations": "[\n    {\n        \"rel\": 14711773,\n        \"reltags\": {\n            \"name\": \"Игора\",\n            \"public_transport\": \"stop_area\",\n            \"type\": \"public_transport\"\n        },\n        \"role\": \"stop\"\n    }\n]\n" }, "geometry": { "type": "Point", "coordinates": [ 30.203597, 60.5124282 ] } },
{ "type": "Feature", "properties": { "id": "node/10114289325", "@id": "node/10114289325", "area": null, "bench": null, "bin": null, "bus": "yes", "esr:user": null, "highway": null, "name": "Игора", "network": null, "operator": null, "operator:branch": null, "public_transport": "stop_position", "railway": null, "ref": null, "shelter": null, "surface": null, "tactile_paving": null, "train": null, "uic_ref": null, "wikidata": null, "wikipedia": null, "@relations": "[\n    {\n        \"rel\": 14711772,\n        \"reltags\": {\n            \"name\": \"Игора\",\n            \"public_transport\": \"stop_area\",\n            \"type\": \"public_transport\"\n        },\n        \"role\": \"stop\"\n    }\n]\n" }, "geometry": { "type": "Point", "coordinates": [ 30.2035699, 60.5124721 ] } },
{ "type": "Feature", "properties": { "id": "node/10114289326", "@id": "node/10114289326", "area": null, "bench": null, "bin": null, "bus": "yes", "esr:user": null, "highway": null, "name": "Иваново", "network": null, "operator": null, "operator:branch": null, "public_transport": "stop_position", "railway": null, "ref": null, "shelter": null, "surface": null, "tactile_paving": null, "train": null, "uic_ref": null, "wikidata": null, "wikipedia": null, "@relations": "[\n    {\n        \"rel\": 14711775,\n        \"reltags\": {\n            \"name\": \"Иваново\",\n            \"public_transport\": \"stop_area\",\n            \"type\": \"public_transport\"\n        },\n        \"role\": \"stop\"\n    }\n]\n" }, "geometry": { "type": "Point", "coordinates": [ 30.1859512, 60.5319283 ] } },
{ "type": "Feature", "properties": { "id": "node/10114289327", "@id": "node/10114289327", "area": null, "bench": null, "bin": null, "bus": "yes", "esr:user": null, "highway": null, "name": "Иваново", "network": null, "operator": null, "operator:branch": null, "public_transport": "stop_position", "railway": null, "ref": null, "shelter": null, "surface": null, "tactile_paving": null, "train": null, "uic_ref": null, "wikidata": null, "wikipedia": null, "@relations": "[\n    {\n        \"rel\": 14711774,\n        \"reltags\": {\n            \"name\": \"Иваново\",\n            \"public_transport\": \"stop_area\",\n            \"type\": \"public_transport\"\n        },\n        \"role\": \"stop\"\n    }\n]\n" }, "geometry": { "type": "Point", "coordinates": [ 30.1856721, 60.5316006 ] } },
{ "type": "Feature", "properties": { "id": "node/10114289328", "@id": "node/10114289328", "area": null, "bench": null, "bin": null, "bus": "yes", "esr:user": null, "highway": null, "name": "Иваново", "network": null, "operator": null, "operator:branch": null, "public_transport": "stop_position", "railway": null, "ref": null, "shelter": null, "surface": null, "tactile_paving": null, "train": null, "uic_ref": null, "wikidata": null, "wikipedia": null, "@relations": "[\n    {\n        \"rel\": 14711776,\n        \"reltags\": {\n            \"name\": \"Иваново\",\n            \"public_transport\": \"stop_area\",\n            \"type\": \"public_transport\"\n        },\n        \"role\": \"stop\"\n    }\n]\n" }, "geometry": { "type": "Point", "coordinates": [ 30.1906605, 60.5245993 ] } },
{ "type": "Feature", "properties": { "id": "node/10114289329", "@id": "node/10114289329", "area": null, "bench": null, "bin": null, "bus": "yes", "esr:user": null, "highway": null, "name": "Иваново", "network": null, "operator": null, "operator:branch": null, "public_transport": "stop_position", "railway": null, "ref": null, "shelter": null, "surface": null, "tactile_paving": null, "train": null, "uic_ref": null, "wikidata": null, "wikipedia": null, "@relations": "[\n    {\n        \"rel\": 14711777,\n        \"reltags\": {\n            \"name\": \"Иваново\",\n            \"public_transport\": \"stop_area\",\n            \"type\": \"public_transport\"\n        },\n        \"role\": \"stop\"\n    }\n]\n" }, "geometry": { "type": "Point", "coordinates": [ 30.189942, 60.5249691 ] } },
{ "type": "Feature", "properties": { "id": "node/10114289330", "@id": "node/10114289330", "area": null, "bench": "no", "bin": null, "bus": "yes", "esr:user": null, "highway": "bus_stop", "name": "Иваново", "network": null, "operator": null, "operator:branch": null, "public_transport": "platform", "railway": null, "ref": null, "shelter": "no", "surface": null, "tactile_paving": null, "train": null, "uic_ref": null, "wikidata": null, "wikipedia": null, "@relations": "[\n    {\n        \"rel\": 14711776,\n        \"reltags\": {\n            \"name\": \"Иваново\",\n            \"public_transport\": \"stop_area\",\n            \"type\": \"public_transport\"\n        },\n        \"role\": \"platform\"\n    }\n]\n" }, "geometry": { "type": "Point", "coordinates": [ 30.1904994, 60.524557 ] } },
{ "type": "Feature", "properties": { "id": "node/11593745026", "@id": "node/11593745026", "area": null, "bench": null, "bin": null, "bus": null, "esr:user": null, "highway": null, "name": null, "network": null, "operator": null, "operator:branch": null, "public_transport": "station", "railway": null, "ref": null, "shelter": null, "surface": null, "tactile_paving": null, "train": null, "uic_ref": null, "wikidata": null, "wikipedia": null, "@relations": null }, "geometry": { "type": "Point", "coordinates": [ 30.2121937, 60.51684 ] } },
{ "type": "Feature", "properties": { "id": "node/11593745027", "@id": "node/11593745027", "area": null, "bench": null, "bin": null, "bus": null, "esr:user": null, "highway": null, "name": null, "network": null, "operator": null, "operator:branch": null, "public_transport": "station", "railway": null, "ref": null, "shelter": null, "surface": null, "tactile_paving": null, "train": null, "uic_ref": null, "wikidata": null, "wikipedia": null, "@relations": null }, "geometry": { "type": "Point", "coordinates": [ 30.2264424, 60.5167797 ] } }
]
}
