{
"type": "FeatureCollection",
"name": "проверка Игора",
"crs": { "type": "name", "properties": { "name": "urn:ogc:def:crs:OGC:1.3:CRS84" } },
"features": [
{ "type": "Feature", "properties": { }, "geometry": { "type": "Polygon", "coordinates": [ [ [ 30.224309346836364, 60.510769872403749 ], [ 30.223420892731017, 60.511229939011749 ], [ 30.224701651246505, 60.512070537670525 ], [ 30.226963170787386, 60.512649856484451 ], [ 30.226605481472248, 60.512996306903936 ], [ 30.228417004777945, 60.513399547808781 ], [ 30.228532388427986, 60.513717593432858 ], [ 30.229143921773222, 60.513677837900588 ], [ 30.229432380898327, 60.513422265456903 ], [ 30.229605456373406, 60.513354112464754 ], [ 30.231220827474019, 60.513785745660392 ], [ 30.233020812414715, 60.514069711731963 ], [ 30.235045795472992, 60.512689613278141 ], [ 30.227084323619938, 60.509645237638928 ], [ 30.224292039288859, 60.508406958255414 ], [ 30.223213202160952, 60.508651209769972 ], [ 30.22076706878001, 60.510287079432807 ], [ 30.223830504688674, 60.510517116980871 ], [ 30.224545883318953, 60.510661954599207 ], [ 30.224545883318953, 60.510661954599207 ], [ 30.224309346836364, 60.510769872403749 ] ] ] } }
]
}
